{"type": "FeatureCollection", "features": [{"type": "Feature", "geometry": {"type": "LineString", "coordinates": [[-0.15625, 36.65625], [-0.15625, 36.65625], [-0.2083333333333331, 36.59375], [-0.21875, 36.58984375], [-0.25, 36.59375], [-0.28125, 36.598958333333336], [-0.34375, 36.638888888888886], [-0.359375, 36.65625]]}, "properties": {"level": 0.08}}, {"type": "Feature", "geometry": {"type": "LineString", "coordinates": [[0.5572916666666667, 36.65625], [0.59375, 36.60576923076923], [0.6024305555555556, 36.59375], [0.6443452380952381, 36.53125], [0.65625, 36.51041666666667], [0.6770833333333333, 36.46875], [0.6631944444444446, 36.40625], [0.65625, 36.40353260869565], [0.6510416666666666, 36.40625], [0.59375, 36.43614130434783], [0.5360576923076924, 36.46875], [0.53125, 36.471467391304344], [0.46875, 36.509375], [0.4140624999999997, 36.53125], [0.40625, 36.53492647058823], [0.34375, 36.56041666666667], [0.28125, 36.577168367346935], [0.21875, 36.58762254901961], [0.15625, 36.59375], [0.09375, 36.59054487179487], [0.03125, 36.57560483870968], [-0.03125, 36.5390625], [-0.041666666666666505, 36.53125], [-0.09375, 36.497767857142854], [-0.13651315789473673, 36.46875], [-0.15625, 36.455357142857146], [-0.21875, 36.432291666666664], [-0.28125, 36.44602272727273], [-0.30625, 36.46875], [-0.34375, 36.49875], [-0.37083333333333335, 36.53125], [-0.40625, 36.567887931034484]]}, "properties": {"level": 0.085}}, {"type": "Feature", "geometry": {"type": "LineString", "coordinates": [[0.6671874999999998, 36.2921875], [0.65625, 36.29375], [0.59375, 36.34242021276596], [0.5923295454545454, 36.34375], [0.53125, 36.39543269230769], [0.5171874999999998, 36.40625], [0.46875, 36.44147727272727], [0.4187499999999998, 36.46875], [0.40624999999999994, 36.47569444444444], [0.34375, 36.502480158730165], [0.28125, 36.51856884057971], [0.21875, 36.52757352941176], [0.15625, 36.52734375], [0.09375, 36.51674107142857], [0.03125, 36.493206521739125], [-0.00754310344827578, 36.46875], [-0.03125, 36.453804347826086], [-0.09201388888888883, 36.40625], [-0.09375, 36.404687499999994], [-0.15625, 36.34979838709677], [-0.16611842105263142, 36.34375], [-0.21875, 36.30027173913044], [-0.28124999999999994, 36.28492647058824], [-0.34007352941176505, 36.34375], [-0.34375, 36.34742647058823], [-0.3731617647058824, 36.40625], [-0.40625, 36.45738636363636]]}, "properties": {"level": 0.09}}, {"type": "Feature", "geometry": {"type": "LineString", "coordinates": [[0.6307397959183675, 36.65625], [0.65625, 36.624198717948715], [0.6795343137254903, 36.59375], [0.71875, 36.543749999999996], [0.7280092592592594, 36.53125], [0.7681686046511629, 36.46875], [0.78125, 36.44196428571429], [0.7959558823529413, 36.40625], [0.8036858974358977, 36.34375]]}, "properties": {"level": 0.09}}, {"type": "Feature", "geometry": {"type": "LineString", "coordinates": [[0.5914351851851851, 36.27893518518519], [0.5892045454545453, 36.28125], [0.53125, 36.33620689655172], [0.523148148148148, 36.34375], [0.46875, 36.38825757575758], [0.4417613636363635, 36.40625], [0.40625000000000006, 36.428894927536234], [0.34375, 36.45592948717949], [0.29613095238095205, 36.46875], [0.28125, 36.47327898550725], [0.21875, 36.481617647058826], [0.15625, 36.478515625], [0.11948529411764738, 36.46875], [0.09375, 36.46231617647059], [0.03125, 36.43366228070175], [-0.007812499999999785, 36.40625], [-0.03125, 36.387867647058826], [-0.07912234042553186, 36.34375], [-0.09375, 36.3265625], [-0.13402777777777766, 36.28125], [-0.15625, 36.24676724137932], [-0.18014705882352933, 36.21875], [-0.21874999999999978, 36.15625], [-0.21875, 36.15625], [-0.2758152173913042, 36.09375], [-0.28125, 36.08779761904762], [-0.34375, 36.06944444444444], [-0.40625, 36.09375]]}, "properties": {"level": 0.095}}, {"type": "Feature", "geometry": {"type": "LineString", "coordinates": [[0.6869877049180328, 36.65625], [0.71875, 36.616709183673464], [0.7366071428571429, 36.59375], [0.78125, 36.536352040816325], [0.7849813432835822, 36.53125], [0.8239583333333333, 36.46875], [0.84375, 36.42916666666667], [0.8543269230769232, 36.40625], [0.8635284810126584, 36.36352848101266]]}, "properties": {"level": 0.095}}, {"type": "Feature", "geometry": {"type": "LineString", "coordinates": [[0.5625, 36.25], [0.5323863636363635, 36.28125], [0.53125, 36.2823275862069], [0.46875, 36.340951492537314], [0.4652777777777777, 36.34375], [0.40625, 36.385690789473685], [0.36402027027026995, 36.40625], [0.34375, 36.41586538461538], [0.28125, 36.434864457831324], [0.21875, 36.44131097560976], [0.15625, 36.43585526315789], [0.09375, 36.416360294117645], [0.07465277777777798, 36.40625], [0.03125, 36.381048387096776], [-0.014093137254901786, 36.34375], [-0.03125, 36.32625], [-0.07072368421052615, 36.28125], [-0.09375, 36.244791666666664], [-0.11177884615384602, 36.21875], [-0.14397321428571408, 36.15625], [-0.15625, 36.125], [-0.17343749999999983, 36.09375], [-0.20394736842105243, 36.03125], [-0.21875, 36.00164473684211], [-0.25164473684210487, 35.96875], [-0.28125, 35.94318181818182], [-0.34375, 35.922554347826086], [-0.40624999999999994, 35.922554347826086]]}, "properties": {"level": 0.1}}, {"type": "Feature", "geometry": {"type": "LineString", "coordinates": [[0.7359601449275364, 36.65625], [0.78125, 36.59943181818181], [0.7856514084507044, 36.59375], [0.8316231343283583, 36.53125], [0.84375, 36.51278409090909], [0.8706597222222223, 36.46875], [0.9024038461538463, 36.40625], [0.9030854430379748, 36.40308544303797]]}, "properties": {"level": 0.1}}, {"type": "Feature", "geometry": {"type": "LineString", "coordinates": [[0.5335648148148147, 36.22106481481481], [0.53125, 36.22346698113208], [0.48263888888888873, 36.28125], [0.46875000000000006, 36.29430970149254], [0.4074074074074071, 36.34375], [0.40625, 36.34457236842105], [0.34375, 36.37797619047619], [0.28125, 36.397629310344826], [0.21875, 36.403343023255815], [0.15625, 36.395447530864196], [0.09375, 36.37239583333333], [0.04891304347826116, 36.34375], [0.03125, 36.32997881355932], [-0.016666666666666517, 36.28125], [-0.03125, 36.260901162790695], [-0.059570312499999854, 36.21875], [-0.08908582089552225, 36.15625], [-0.09375, 36.14204545454545], [-0.11272321428571408, 36.09375], [-0.13051470588235267, 36.03125], [-0.14462209302325546, 35.96875], [-0.15625, 35.91319444444444], [-0.15885416666666602, 35.90625], [-0.17578124999999944, 35.84375], [-0.17968749999999867, 35.78125]]}, "properties": {"level": 0.105}}, {"type": "Feature", "geometry": {"type": "LineString", "coordinates": [[0.7812500000000001, 36.65625], [0.8296654929577467, 36.59375], [0.84375, 36.5748820754717], [0.8741776315789476, 36.53125], [0.90625, 36.48046875], [0.9133702531645572, 36.46875], [0.9310344827586208, 36.43103448275862]]}, "properties": {"level": 0.105}}, {"type": "Feature", "geometry": {"type": "LineString", "coordinates": [[0.48897058823529393, 36.21875], [0.46875, 36.24245689655173], [0.4324596774193546, 36.28125], [0.40625, 36.30291666666667], [0.34375, 36.340624999999996], [0.335129310344827, 36.34375], [0.28125, 36.36170977011494], [0.21875, 36.36700581395348], [0.15625, 36.35686728395061], [0.1250000000000004, 36.34375], [0.09375, 36.32835144927536], [0.03571428571428599, 36.28125], [0.03125, 36.276348039215684], [-0.011948529411764539, 36.21875], [-0.03125, 36.17897727272727], [-0.04244402985074607, 36.15625], [-0.06201923076923056, 36.09375], [-0.0725635593220336, 36.03125], [-0.07461734693877514, 35.96875], [-0.06672297297297262, 35.90625], [-0.03624999999999945, 35.84375], [-0.034722222222221835, 35.84027777777778]]}, "properties": {"level": 0.11}}, {"type": "Feature", "geometry": {"type": "LineString", "coordinates": [[0.8240582191780823, 36.65625], [0.84375, 36.63103070175438], [0.8713474025974028, 36.59375], [0.90625, 36.54398148148148], [0.9148437500000002, 36.53125], [0.9529272151898737, 36.46875], [0.9579741379310346, 36.45797413793103]]}, "properties": {"level": 0.11}}, {"type": "Feature", "geometry": {"type": "LineString", "coordinates": [[0.4418269230769228, 36.21875], [0.40625, 36.25665983606557], [0.37624999999999964, 36.28125], [0.34375, 36.3015625], [0.28125, 36.32445987654321], [0.21875, 36.3296875], [0.15625, 36.31661184210526], [0.09374999999999999, 36.2830615942029], [0.09151785714285739, 36.28125], [0.03432377049180351, 36.21875], [0.03125, 36.21339285714286], [0.002678571428571695, 36.15625], [-0.014705882352940958, 36.09375], [-0.019791666666666347, 36.03125], [-0.010841836734693473, 35.96875], [0.01909722222222262, 35.90625], [0.03125, 35.89213709677419], [0.05544354838709706, 35.867943548387096]]}, "properties": {"level": 0.115}}, {"type": "Feature", "geometry": {"type": "LineString", "coordinates": [[0.8668664383561646, 36.65625], [0.90625, 36.60200471698113], [0.9119318181818183, 36.59375], [0.9539062500000002, 36.53125], [0.96875, 36.50701530612245]]}, "properties": {"level": 0.115}}, {"type": "Feature", "geometry": {"type": "LineString", "coordinates": [[0.3974184782608693, 36.209918478260875], [0.39091981132075426, 36.21875], [0.34375, 36.2578125], [0.2937499999999993, 36.28125], [0.28125, 36.285879629629626], [0.21875000000000003, 36.290625000000006], [0.1792763157894748, 36.28125], [0.15625, 36.27395833333334], [0.09374999999999999, 36.22767857142857], [0.08555327868852491, 36.21875], [0.04910714285714323, 36.15625], [0.03125000000000029, 36.09375], [0.03245192307692344, 36.03125], [0.05654761904761951, 35.96875], [0.09375, 35.926520270270274]]}, "properties": {"level": 0.12}}, {"type": "Feature", "geometry": {"type": "LineString", "coordinates": [[0.9097222222222224, 36.65624999999999], [0.952516233766234, 36.59375], [0.96875, 36.569240196078425]]}, "properties": {"level": 0.12}}, {"type": "Feature", "geometry": {"type": "LineString", "coordinates": [[0.3634510869565214, 36.17595108695652], [0.34375, 36.20272435897436], [0.3229166666666655, 36.21875], [0.28125, 36.23828125], [0.21875, 36.24355158730159], [0.15625, 36.221875], [0.15208333333333418, 36.21875], [0.10054347826087034, 36.15625], [0.09375, 36.13392857142857], [0.08421610169491572, 36.09375], [0.09254807692307739, 36.03125], [0.09375, 36.02884615384615], [0.11816406250000042, 35.9931640625]]}, "properties": {"level": 0.125}}, {"type": "Feature", "geometry": {"type": "LineString", "coordinates": [[0.9531250000000004, 36.65625], [0.96875, 36.6328125]]}, "properties": {"level": 0.125}}, {"type": "Feature", "geometry": {"type": "LineString", "coordinates": [[0.3014112903225796, 36.15625], [0.28125, 36.171875], [0.21875, 36.1786858974359], [0.180706521739132, 36.15625], [0.15625, 36.109375], [0.15198863636363721, 36.09375], [0.15625, 36.080357142857146], [0.17589285714285793, 36.050892857142856]]}, "properties": {"level": 0.13}}], "metadata": {"variable": "ssh", "min": 0.0789, "max": 0.1324, "interval": 0.005}}