{"type": "FeatureCollection", "features": [{"type": "Feature", "properties": {"temperature": 23.0, "units": "celsius"}, "geometry": {"type": "LineString", "coordinates": [[0.9833720930232559, 36.54918177797435], [0.9750581395348838, 36.54933973589436], [0.9667441860465118, 36.54933973589436], [0.9639728682170543, 36.54873949579832], [0.9584302325581397, 36.54633853541417], [0.953234011627905, 36.54033613445378], [0.953234011627905, 36.53193277310925], [0.9501162790697675, 36.523529411764706], [0.9584302325581397, 36.523529411764706], [0.9667441860465118, 36.51512605042017], [0.9667441860465118, 36.50672268907563], [0.9750581395348838, 36.503361344537815], [0.9821843853820609, 36.498319327731096], [0.9833720930232559, 36.49791916766707]]}}, {"type": "Feature", "properties": {"temperature": 23.0, "units": "celsius"}, "geometry": {"type": "LineString", "coordinates": [[0.8760465116279064, 36.40588235294118], [0.8786162790697685, 36.41428571428572], [0.8752906976744188, 36.41908763505403], [0.8669767441860465, 36.41908763505403], [0.8586627906976745, 36.417086834733894], [0.8545058139534885, 36.41428571428572], [0.8503488372093024, 36.41323529411765], [0.8420348837209304, 36.41008403361345], [0.8337209302325583, 36.40588235294118], [0.8309496124031035, 36.39747899159664], [0.8337209302325583, 36.39595110771582], [0.8420348837209304, 36.39649036085022], [0.8503488372093024, 36.396578631452584]]}}, {"type": "Feature", "properties": {"temperature": 23.0, "units": "celsius"}, "geometry": {"type": "LineString", "coordinates": [[0.8545058139534885, 36.39747899159664], [0.8586627906976745, 36.39977081741788], [0.8669767441860465, 36.40168067226891]]}}, {"type": "Feature", "properties": {"temperature": 23.5, "units": "celsius"}, "geometry": {"type": "LineString", "coordinates": [[0.9833720930232559, 36.637297996121525], [0.9750581395348838, 36.63697478991597], [0.9667441860465118, 36.636134453781516], [0.9584302325581397, 36.63389355742297], [0.9570445736434123, 36.6327731092437], [0.9501162790697675, 36.62782995551162], [0.9442965116279058, 36.62436974789916], [0.9418023255813954, 36.62207792207793], [0.9357558139534874, 36.615966386554625], [0.9334883720930234, 36.61281512605043], [0.9297093023255811, 36.607563025210084], [0.9251744186046513, 36.602521008403365], [0.9226162790697663, 36.59915966386555], [0.9168604651162793, 36.59334195216549], [0.9154145601617791, 36.59075630252101], [0.9168604651162793, 36.58739495798319], [0.9218488372093014, 36.582352941176474], [0.9251744186046513, 36.57899159663866], [0.9301627906976735, 36.57394957983193], [0.9268372093023245, 36.5655462184874], [0.9251744186046513, 36.563445378151265], [0.9198297342192703, 36.55714285714286], [0.9168604651162793, 36.554141656662665], [0.911515780730898, 36.54873949579832], [0.908546511627907, 36.54550743374273], [0.9011563307493535, 36.54033613445378], [0.900232558139535, 36.5389355742297], [0.8960755813953489, 36.53193277310925], [0.8919186046511629, 36.523529411764706], [0.8859800664451809, 36.51512605042017], [0.8836046511627909, 36.51272509003602], [0.8776661129568089, 36.50672268907563], [0.8752906976744188, 36.5046218487395], [0.8681644518272418, 36.498319327731096], [0.8669767441860465, 36.49711884753902], [0.8598504983388695, 36.489915966386555], [0.8586627906976745, 36.48851540616247], [0.8517344961240298, 36.48151260504202], [0.8503488372093024, 36.48011204481793], [0.8434205426356578, 36.47310924369748], [0.8420348837209304, 36.47226890756303], [0.8337209302325583, 36.46750700280113], [0.8289700996677714, 36.464705882352945], [0.8254069767441861, 36.46322293623332], [0.817093023255814, 36.46260504201681], [0.808779069767442, 36.459534583064], [0.8004651162790699, 36.456948933419525], [0.7994258720930241, 36.4563025210084], [0.7921511627906979, 36.44894957983193], [0.7912273901808793, 36.44789915966387], [0.7838372093023258, 36.44042950513539], [0.783081395348838, 36.43949579831933], [0.7755232558139535, 36.43185637891521], [0.774767441860466, 36.431092436974794], [0.7672093023255815, 36.423453017570665], [0.7661700581395356, 36.42268907563025], [0.7588953488372094, 36.416806722689074], [0.7547383720930234, 36.41428571428572], [0.7505813953488374, 36.41199388846448], [0.7431912144702837, 36.40588235294118], [0.7422674418604653, 36.4046818727491], [0.7367248062015488, 36.39747899159664], [0.7339534883720931, 36.39432773109244], [0.7287572674418585, 36.3890756302521], [0.725639534883721, 36.385924369747904], [0.7204433139534863, 36.38067226890757], [0.717325581395349, 36.372268907563026], [0.721482558139535, 36.36386554621849], [0.725639534883721, 36.35546218487395], [0.7339534883720931, 36.353781512605046], [0.7422674418604653, 36.3515406162465]]}}, {"type": "Feature", "properties": {"temperature": 23.5, "units": "celsius"}, "geometry": {"type": "LineString", "coordinates": [[0.9833720930232559, 36.571295886775765], [0.9750581395348838, 36.57394957983193], [0.9667441860465118, 36.57768440709618], [0.9608056478405298, 36.582352941176474], [0.9584302325581397, 36.58655462184874], [0.9567674418604664, 36.59075630252101], [0.9584302325581397, 36.59135654261705], [0.9661503322259142, 36.59915966386555], [0.9667441860465118, 36.599668958492494], [0.9750581395348838, 36.604115492350786], [0.9778294573643416, 36.607563025210084], [0.9833720930232559, 36.614285714285714]]}}, {"type": "Feature", "properties": {"temperature": 23.5, "units": "celsius"}, "geometry": {"type": "LineString", "coordinates": [[-0.43, 35.98235294117647], [-0.42524916943521307, 35.98571428571429], [-0.4216860465116279, 35.98823529411765], [-0.41441133720930157, 35.99411764705883], [-0.4133720930232558, 35.99579831932773], [-0.40505813953488373, 36.00252100840336], [-0.3967441860465116, 36.00372148859544], [-0.39397286821705424, 36.00252100840336], [-0.3884302325581395, 35.996918767507005], [-0.3856589147286822, 35.99411764705883], [-0.3842732558139535, 35.98571428571429], [-0.3884302325581395, 35.98011204481793], [-0.39050872093023253, 35.97731092436975], [-0.3884302325581395, 35.97310924369748], [-0.3801162790697674, 35.97450980392158], [-0.37346511627906787, 35.96890756302521], [-0.37180232558139537, 35.964705882352945], [-0.36348837209302326, 35.966106442577036], [-0.3607170542635659, 35.96890756302521], [-0.35517441860465115, 35.97130852340936], [-0.34686046511627905, 35.97563025210084], [-0.3440891472868243, 35.97731092436975], [-0.33854651162790694, 35.98403361344538], [-0.33716085271317964, 35.98571428571429], [-0.3335581395348837, 35.99411764705883], [-0.3302325581395349, 35.99971988795519], [-0.32856976744186234, 36.00252100840336], [-0.3219186046511628, 36.010924369747904], [-0.31499031007751804, 36.01932773109244], [-0.3219186046511628, 36.02533013205283], [-0.3302325581395349, 36.024579831932776], [-0.3352209302325581, 36.02773109243698], [-0.33854651162790694, 36.030532212885156], [-0.3440891472868243, 36.036134453781514], [-0.34686046511627905, 36.03823529411765], [-0.35517441860465115, 36.042136854741905], [-0.3593313953488372, 36.044537815126056], [-0.36348837209302326, 36.04573829531813], [-0.37180232558139537, 36.046938775510206], [-0.3801162790697674, 36.04933973589436], [-0.3842732558139535, 36.05294117647059], [-0.3884302325581395, 36.05714285714286], [-0.3925872093023256, 36.06134453781513], [-0.395988372093024, 36.069747899159665], [-0.3967441860465116, 36.070308123249305], [-0.40505813953488373, 36.07214885954382], [-0.4133720930232558, 36.07254901960785], [-0.4216860465116279, 36.07254901960785], [-0.43, 36.07127578304049]]}}, {"type": "Feature", "properties": {"temperature": 23.5, "units": "celsius"}, "geometry": {"type": "LineString", "coordinates": [[-0.14316860465116277, 36.010924369747904], [-0.14109011627906975, 36.01932773109244], [-0.13901162790697674, 36.02212885154062], [-0.1356860465116279, 36.02773109243698], [-0.13069767441860464, 36.036134453781514], [-0.12861918604651162, 36.044537815126056], [-0.13069767441860464, 36.04873949579832], [-0.13485465116279066, 36.05294117647059], [-0.13901162790697674, 36.054621848739494], [-0.1456627906976763, 36.06134453781513], [-0.1473255813953488, 36.062108479755544], [-0.1556395348837209, 36.06190476190476], [-0.1577180232558139, 36.06134453781513], [-0.163953488372093, 36.05819327731093], [-0.1722674418604651, 36.05546218487395], [-0.1805813953488372, 36.05294117647059], [-0.1888953488372093, 36.05294117647059], [-0.1888953488372093, 36.044537815126056], [-0.1805813953488372, 36.044537815126056], [-0.17781007751937983, 36.036134453781514], [-0.1722674418604651, 36.030532212885156], [-0.16949612403100772, 36.02773109243698], [-0.169892026578075, 36.01932773109244], [-0.1722674418604651, 36.010924369747904], [-0.163953488372093, 36.00672268907563], [-0.1556395348837209, 36.00672268907563], [-0.1473255813953488, 36.009873949579834], [-0.14316860465116277, 36.010924369747904]]}}, {"type": "Feature", "properties": {"temperature": 23.5, "units": "celsius"}, "geometry": {"type": "LineString", "coordinates": [[-0.20552325581395348, 36.05294117647059], [-0.21383720930232555, 36.05294117647059], [-0.20552325581395348, 36.05294117647059]]}}, {"type": "Feature", "properties": {"temperature": 23.5, "units": "celsius"}, "geometry": {"type": "LineString", "coordinates": [[-0.27619186046511623, 36.044537815126056], [-0.2803488372093023, 36.04733893557423], [-0.2886627906976744, 36.04733893557423], [-0.29697674418604647, 36.044537815126056], [-0.2886627906976744, 36.043487394957985], [-0.2803488372093023, 36.04360410830999], [-0.27619186046511623, 36.044537815126056]]}}, {"type": "Feature", "properties": {"temperature": 23.5, "units": "celsius"}, "geometry": {"type": "LineString", "coordinates": [[0.037659883720930265, 35.92689075630253], [0.03558139534883725, 35.92899159663866], [0.02934593023255816, 35.93529411764706], [0.029642857142855195, 35.9436974789916], [0.03558139534883725, 35.95070028011205], [0.036967054263564614, 35.952100840336136], [0.03558139534883725, 35.96050420168068], [0.027267441860465147, 35.96050420168068], [0.01895348837209304, 35.95378151260504], [0.01756782945736568, 35.952100840336136], [0.010639534883720936, 35.94509803921569], [0.009253875968993575, 35.9436974789916], [0.0023255813953488857, 35.93669467787115], [-0.0018313953488371948, 35.93529411764706], [-0.00598837209302322, 35.931092436974794], [-0.008759689922480607, 35.92689075630253], [-0.014302325581395325, 35.92268907563025], [-0.019844961240310044, 35.92689075630253], [-0.02261627906976743, 35.9296918767507], [-0.03093023255813948, 35.93529411764706], [-0.03924418604651159, 35.93529411764706], [-0.04755813953488369, 35.93529411764706], [-0.0558720930232558, 35.9436974789916], [-0.0641860465116279, 35.9436974789916], [-0.07249999999999995, 35.93949579831933], [-0.08081395348837206, 35.93529411764706], [-0.08912790697674416, 35.92689075630253], [-0.09744186046511627, 35.918487394957985], [-0.10575581395348838, 35.91008403361345], [-0.10575581395348838, 35.90168067226891], [-0.10852713178294571, 35.893277310924375], [-0.10575581395348838, 35.891176470588235], [-0.09744186046511627, 35.884873949579834], [-0.08912790697674416, 35.88334606569901], [-0.08081395348837206, 35.883006535947715], [-0.07249999999999995, 35.883006535947715], [-0.0641860465116279, 35.88403361344538], [-0.06267441860465195, 35.884873949579834], [-0.0558720930232558, 35.88932278793871], [-0.04755813953488369, 35.892895339954165], [-0.046865310077519984, 35.893277310924375], [-0.03924418604651159, 35.90038784744667], [-0.035918604651162755, 35.90168067226891], [-0.03093023255813948, 35.906722689075636], [-0.026773255813953456, 35.91008403361345], [-0.02261627906976743, 35.91568627450981], [-0.0192906976744186, 35.91008403361345], [-0.014302325581395325, 35.905042016806725], [-0.010976744186046494, 35.90168067226891], [-0.00598837209302322, 35.899579831932776], [0.0023255813953488857, 35.89747899159664], [0.010639534883720936, 35.900000000000006], [0.01895348837209304, 35.90168067226891], [0.027267441860465147, 35.90378151260504]]}}, {"type": "Feature", "properties": {"temperature": 23.5, "units": "celsius"}, "geometry": {"type": "LineString", "coordinates": [[-0.3801162790697674, 35.93529411764706], [-0.3801162790697674, 35.9436974789916], [-0.3801162790697674, 35.952100840336136], [-0.3884302325581395, 35.9436974789916], [-0.3967441860465116, 35.94089635854342], [-0.40505813953488373, 35.9436974789916], [-0.4133720930232558, 35.945564892623715], [-0.41669767441860467, 35.9436974789916], [-0.4133720930232558, 35.93529411764706], [-0.40505813953488373, 35.93529411764706], [-0.3967441860465116, 35.931092436974794], [-0.3884302325581395, 35.931092436974794], [-0.3801162790697674, 35.93529411764706]]}}, {"type": "Feature", "properties": {"temperature": 24.0, "units": "celsius"}, "geometry": {"type": "LineString", "coordinates": [[0.9833720930232559, 36.66965452847806], [0.9760973837209297, 36.66638655462185], [0.9750581395348838, 36.66578631452581], [0.9667441860465118, 36.663985594237694], [0.9584302325581397, 36.66078431372549], [0.9501162790697675, 36.65798319327731], [0.9418023255813954, 36.65339954163484], [0.9334883720930234, 36.65098039215687], [0.9307170542635685, 36.649579831932776], [0.9251744186046513, 36.64584500466854], [0.9199781976744166, 36.641176470588235], [0.9168604651162793, 36.63865546218488], [0.9103940568475442, 36.6327731092437], [0.908546511627907, 36.63090569561158], [0.900232558139535, 36.62436974789916], [0.8919186046511629, 36.6171668667467], [0.8905329457364355, 36.615966386554625], [0.886098837209301, 36.607563025210084], [0.885452196382428, 36.59915966386555], [0.885452196382428, 36.59075630252101], [0.8888953488372082, 36.582352941176474], [0.8919186046511629, 36.578618113912235], [0.8948878737541539, 36.57394957983193], [0.8974612403100775, 36.5655462184874], [0.8919186046511629, 36.55994397759104], [0.8891472868217054, 36.55714285714286], [0.8836046511627909, 36.55219970341078], [0.8783139534883735, 36.54873949579832], [0.8752906976744188, 36.54676223430549], [0.8669767441860465, 36.54220354808591], [0.8628197674418605, 36.54033613445378], [0.8586627906976745, 36.53846872082166], [0.8503488372093024, 36.536134453781514], [0.8420348837209304, 36.53361344537815], [0.8360963455149484, 36.53193277310925], [0.8337209302325583, 36.530532212885156], [0.8254069767441861, 36.524369747899165], [0.8246511627906985, 36.523529411764706], [0.8195872093023244, 36.51512605042017], [0.817093023255814, 36.51260504201681], [0.8112732558139524, 36.50672268907563], [0.808779069767442, 36.504201680672274], [0.8004651162790699, 36.49896574014221], [0.7998255813953494, 36.498319327731096], [0.7921511627906979, 36.49056237879768], [0.791458333333334, 36.489915966386555], [0.7838372093023258, 36.48280542986426], [0.7817587209302341, 36.48151260504202], [0.7755232558139535, 36.47763413057531], [0.7702325581395362, 36.47310924369748], [0.7672093023255815, 36.470523594053006], [0.7588953488372094, 36.46610644257703], [0.7547383720930234, 36.464705882352945], [0.7505813953488374, 36.46302521008404], [0.7422674418604653, 36.4563025210084], [0.7339534883720931, 36.452100840336136], [0.7284108527131785, 36.44789915966387], [0.725639534883721, 36.44509803921569], [0.7200968992248065, 36.43949579831933], [0.7187112403100764, 36.431092436974794], [0.717325581395349, 36.4296918767507], [0.7103972868217043, 36.42268907563025], [0.7090116279069769, 36.42058823529412], [0.7006976744186049, 36.41428571428572], [0.6923837209302326, 36.40588235294118], [0.6840697674418605, 36.40108043217287], [0.6757558139534885, 36.39747899159664], [0.6674418604651164, 36.39411764705883], [0.6591279069767444, 36.39094304388422], [0.6567524916943541, 36.3890756302521], [0.6508139534883721, 36.385255920550044], [0.6452713178294556, 36.38067226890757], [0.6449941860465105, 36.372268907563026], [0.6448754152823901, 36.36386554621849], [0.6425000000000001, 36.361064425770316], [0.6394767441860454, 36.35546218487395], [0.634186046511628, 36.35011459129107], [0.6311627906976733, 36.347058823529416], [0.625872093023256, 36.343790849673205], [0.6175581395348839, 36.3401833460657], [0.6134011627906979, 36.338655462184875], [0.6092441860465116, 36.33025210084034], [0.6175581395348839, 36.3218487394958]]}}, {"type": "Feature", "properties": {"temperature": 24.0, "units": "celsius"}, "geometry": {"type": "LineString", "coordinates": [[0.5926162790697675, 36.30504201680672], [0.5843023255813955, 36.30504201680672]]}}, {"type": "Feature", "properties": {"temperature": 24.0, "units": "celsius"}, "geometry": {"type": "LineString", "coordinates": [[0.03973837209302328, 36.221008403361346], [0.04112403100775197, 36.22941176470589], [0.036769102990032276, 36.23781512605042], [0.03558139534883725, 36.239015606242496], [0.027267441860465147, 36.24621848739496], [0.01895348837209304, 36.24621848739496], [0.010639534883720936, 36.24621848739496], [0.010639534883720936, 36.23781512605042], [0.01895348837209304, 36.234453781512606], [0.027267441860465147, 36.23571428571429], [0.03225581395348842, 36.22941176470589], [0.03350290697674424, 36.221008403361346], [0.03558139534883725, 36.2203081232493], [0.03973837209302328, 36.221008403361346]]}}, {"type": "Feature", "properties": {"temperature": 24.0, "units": "celsius"}, "geometry": {"type": "LineString", "coordinates": [[0.19354651162790698, 36.119234360410836], [0.18523255813953493, 36.11946778711485], [0.18246124031007754, 36.12016806722689], [0.17691860465116288, 36.12577030812325], [0.16860465116279072, 36.12737094837936], [0.16029069767441867, 36.12752100840336], [0.1519767441860465, 36.12857142857143], [0.14366279069767446, 36.13067226890757], [0.1353488372093024, 36.13067226890757], [0.12703488372093025, 36.129335370511846], [0.1187209302325582, 36.12857142857143], [0.11040697674418604, 36.12598577892696], [0.10209302325581399, 36.122689075630255], [0.09377906976744194, 36.12196878751501], [0.09066133720930464, 36.12016806722689], [0.08546511627906977, 36.116936005171304], [0.08034883720930325, 36.11176470588236], [0.07715116279069772, 36.10651260504202], [0.07403343023256043, 36.10336134453782], [0.06883720930232562, 36.09810924369748], [0.06468023255813954, 36.09495798319328], [0.060523255813953514, 36.09075630252101], [0.054287790697674476, 36.08655462184874], [0.05220930232558141, 36.08550420168068], [0.04943798449612402, 36.08655462184874], [0.04389534883720936, 36.09075630252101], [0.03973837209302328, 36.09495798319328], [0.036769102990032276, 36.10336134453782], [0.037659883720928766, 36.11176470588236], [0.03973837209302328, 36.12016806722689], [0.03973837209302328, 36.12857142857143], [0.03558139534883725, 36.13337334933974], [0.027267441860465147, 36.13417366946779], [0.01895348837209304, 36.1331550802139], [0.010639534883720936, 36.13180349062702], [0.0023255813953488857, 36.13037214885954], [-0.003909883720930207, 36.12857142857143], [-0.00598837209302322, 36.12792501616031], [-0.014302325581395325, 36.126170468187276], [-0.02261627906976743, 36.1240465416936], [-0.03093023255813948, 36.12296918767507], [-0.03924418604651159, 36.12016806722689], [-0.04755813953488369, 36.12577030812325], [-0.05171511627906972, 36.12857142857143], [-0.0558720930232558, 36.13025210084034], [-0.0641860465116279, 36.13025210084034], [-0.07249999999999995, 36.13025210084034], [-0.07665697674418603, 36.12857142857143], [-0.08081395348837206, 36.1264705882353], [-0.08912790697674416, 36.12016806722689], [-0.09744186046511627, 36.11296518607443], [-0.09910465116278883, 36.11176470588236], [-0.10575581395348838, 36.107563025210084], [-0.11406976744186043, 36.10429505135388], [-0.11573255813953298, 36.10336134453782], [-0.12238372093023253, 36.100305576776165], [-0.13069767441860464, 36.0983193277311], [-0.13901162790697674, 36.0983193277311], [-0.14524709302325578, 36.10336134453782], [-0.1473255813953488, 36.10546218487395], [-0.15231395348837207, 36.11176470588236], [-0.14836482558139463, 36.12016806722689], [-0.1473255813953488, 36.121848739495796], [-0.14363049095607178, 36.12857142857143], [-0.13901162790697674, 36.13323996265173], [-0.1371640826873376, 36.13697478991597], [-0.13624031007751802, 36.14537815126051], [-0.13236046511627814, 36.15378151260504], [-0.13069767441860464, 36.15564892623716], [-0.12423126614986957, 36.162184873949585], [-0.12238372093023253, 36.164052287581704], [-0.11406976744186043, 36.17058823529412], [-0.10575581395348838, 36.17058823529412], [-0.10021317829457366, 36.17899159663866], [-0.09744186046511627, 36.180672268907564], [-0.09467054263565755, 36.187394957983194], [-0.09269102990032935, 36.195798319327736], [-0.09744186046511627, 36.20420168067227], [-0.08912790697674416, 36.20700280112045], [-0.08497093023255814, 36.21260504201681], [-0.08704941860465115, 36.221008403361346], [-0.08912790697674416, 36.22941176470589], [-0.09744186046511627, 36.22380952380953], [-0.10021317829457366, 36.221008403361346], [-0.09744186046511627, 36.21260504201681], [-0.10575581395348838, 36.20420168067227], [-0.11406976744186043, 36.19859943977591], [-0.11961240310077514, 36.195798319327736], [-0.12238372093023253, 36.19486461251167], [-0.13069767441860464, 36.1905462184874], [-0.13426079734218982, 36.187394957983194], [-0.13901162790697674, 36.182593037214886], [-0.1473255813953488, 36.181792717086836], [-0.1556395348837209, 36.18529411764706], [-0.163953488372093, 36.18529411764706], [-0.1722674418604651, 36.18319327731093], [-0.1805813953488372, 36.187394957983194], [-0.1888953488372093, 36.195798319327736], [-0.19720930232558137, 36.2], [-0.20552325581395348, 36.201400560224094], [-0.21383720930232555, 36.2], [-0.22215116279069766, 36.198199279711886], [-0.23046511627906974, 36.195798319327736], [-0.23877906976744184, 36.19075630252101], [-0.2443217054263566, 36.187394957983194], [-0.24709302325581395, 36.18529411764706], [-0.255406976744186, 36.182352941176475], [-0.26372093023255816, 36.17899159663866], [-0.2720348837209302, 36.17759103641457], [-0.2803488372093023, 36.174789915966386], [-0.2865843023255814, 36.17058823529412], [-0.2886627906976744, 36.169537815126056], [-0.29697674418604647, 36.16685340802988], [-0.3052906976744186, 36.16302521008404], [-0.30806201550387596, 36.162184873949585], [-0.3136046511627907, 36.16008403361345], [-0.3219186046511628, 36.15658263305322], [-0.3302325581395349, 36.15498199279712], [-0.3330038759689922, 36.15378151260504], [-0.33854651162790694, 36.15168067226891], [-0.34686046511627905, 36.148179271708685], [-0.35517441860465115, 36.14642857142857], [-0.35794573643410854, 36.14537815126051], [-0.36348837209302326, 36.14297719087636], [-0.37180232558139537, 36.141176470588235], [-0.3801162790697674, 36.14033613445378], [-0.3884302325581395, 36.14537815126051], [-0.3967441860465116, 36.14800420168068], [-0.40505813953488373, 36.147849728126545], [-0.4133720930232558, 36.14677871148459], [-0.4196075581395349, 36.14537815126051], [-0.4216860465116279, 36.14432773109244], [-0.43, 36.141176470588235]]}}, {"type": "Feature", "properties": {"temperature": 24.0, "units": "celsius"}, "geometry": {"type": "LineString", "coordinates": [[0.013014950166111039, 36.21260504201681], [0.010639534883720936, 36.21500600240096], [0.0023255813953488857, 36.21389786683905], [0.0010465116279081421, 36.21260504201681], [0.0023255813953488857, 36.21073762838469], [0.010639534883720936, 36.21073762838469], [0.013014950166111039, 36.21260504201681]]}}, {"type": "Feature", "properties": {"temperature": 24.0, "units": "celsius"}, "geometry": {"type": "LineString", "coordinates": [[0.20186046511627914, 36.122689075630255], [0.195625, 36.12016806722689]]}}, {"type": "Feature", "properties": {"temperature": 24.0, "units": "celsius"}, "geometry": {"type": "LineString", "coordinates": [[-0.346306201550388, 35.92689075630253], [-0.3460290697674423, 35.93529411764706], [-0.33854651162790694, 35.94285714285714], [-0.33771511627907025, 35.9436974789916], [-0.3302325581395349, 35.94873949579832], [-0.3231063122923578, 35.952100840336136], [-0.3219186046511628, 35.95294117647059], [-0.3136046511627907, 35.95378151260505], [-0.3052906976744186, 35.959103641456586], [-0.30251937984496124, 35.96050420168068], [-0.29697674418604647, 35.96237161531279], [-0.2886627906976744, 35.965756302521015], [-0.2803488372093023, 35.965306122448986], [-0.2720348837209302, 35.96423902894492], [-0.26538372093023066, 35.96050420168068], [-0.26372093023255816, 35.9593037214886], [-0.255406976744186, 35.95378151260505], [-0.2526356589147313, 35.952100840336136], [-0.24709302325581395, 35.94729891956783], [-0.23877906976744184, 35.9468487394958], [-0.23046511627906974, 35.9468487394958], [-0.22215116279069766, 35.94789915966387], [-0.21383720930232555, 35.952100840336136], [-0.20552325581395348, 35.94789915966387], [-0.20136627906976742, 35.9436974789916], [-0.19720930232558137, 35.93949579831933], [-0.19602159468438635, 35.93529411764706], [-0.19513081395348983, 35.92689075630253], [-0.19513081395348983, 35.918487394957985], [-0.19720930232558137, 35.91512605042017], [-0.20219767441860464, 35.91008403361345], [-0.20552325581395348, 35.90448179271709], [-0.206447028423772, 35.90168067226891], [-0.206447028423772, 35.893277310924375], [-0.20552325581395348, 35.891596638655464], [-0.1999806201550361, 35.884873949579834], [-0.19720930232558137, 35.88151260504202], [-0.19409156976744404, 35.8764705882353], [-0.1888953488372093, 35.872650878533236], [-0.18176910299003224, 35.86806722689076], [-0.1805813953488372, 35.867507002801126], [-0.1722674418604651, 35.86677440206852], [-0.163953488372093, 35.865266106442576], [-0.1556395348837209, 35.864465786314526], [-0.1473255813953488, 35.86176470588236], [-0.14109011627906975, 35.859663865546224], [-0.13901162790697674, 35.85922158337019], [-0.13069767441860464, 35.85546218487395], [-0.12654069767441856, 35.85126050420168], [-0.12238372093023253, 35.847058823529416], [-0.116148255813952, 35.84285714285715], [-0.11406976744186043, 35.840056022408966], [-0.10575581395348838, 35.840056022408966], [-0.09744186046511627, 35.840336134453786], [-0.08912790697674416, 35.84091790562379], [-0.0868604651162802, 35.84285714285715], [-0.08081395348837206, 35.84765906362545], [-0.07725083056478355, 35.85126050420168], [-0.07249999999999995, 35.85574229691877], [-0.06862015503875946, 35.859663865546224], [-0.0641860465116279, 35.862865146058425], [-0.057828317373461835, 35.86806722689076], [-0.0558720930232558, 35.869595110771584], [-0.04755813953488369, 35.8746437705517], [-0.04377906976744145, 35.8764705882353], [-0.03924418604651159, 35.878151260504204], [-0.03093023255813948, 35.87727090836335], [-0.026773255813953456, 35.8764705882353], [-0.02261627906976743, 35.87478991596639], [-0.015965116279068825, 35.86806722689076], [-0.014302325581395325, 35.86653934300993], [-0.00598837209302322, 35.865481577246285], [0.0023255813953488857, 35.865966386554625]]}}, {"type": "Feature", "properties": {"temperature": 24.5, "units": "celsius"}, "geometry": {"type": "LineString", "coordinates": [[0.9075072674418614, 36.7], [0.9060523255813968, 36.69159663865546], [0.9032558139534899, 36.68319327731093], [0.900232558139535, 36.67899159663866], [0.896537467700258, 36.674789915966386], [0.8919186046511629, 36.67012138188609], [0.888223514211886, 36.66638655462185], [0.8836046511627909, 36.662184873949585], [0.8766763565891462, 36.65798319327731], [0.8752906976744188, 36.657219251336905], [0.8669767441860465, 36.655182072829135], [0.8586627906976745, 36.65325630252101], [0.8503488372093024, 36.653118089341], [0.8420348837209304, 36.653118089341], [0.8337209302325583, 36.65252100840336], [0.8254069767441861, 36.65036764705883], [0.82125, 36.649579831932776], [0.8254069767441861, 36.64453781512605], [0.8337209302325583, 36.643043884220354], [0.8420348837209304, 36.64562530894711], [0.8461918604651164, 36.641176470588235], [0.8503488372093024, 36.63577430972389], [0.8529469476744189, 36.6327731092437], [0.8503488372093024, 36.628953399541636], [0.8458139534883726, 36.62436974789916], [0.8420348837209304, 36.62113768584357], [0.8337209302325583, 36.61806722689076], [0.8295639534883723, 36.615966386554625], [0.8328895348837215, 36.607563025210084], [0.8337209302325583, 36.60336134453782], [0.8353837209302306, 36.59915966386555], [0.8357994186046513, 36.59075630252101], [0.8420348837209304, 36.582352941176474], [0.8420348837209304, 36.57394957983193], [0.8378779069767444, 36.5655462184874], [0.8337209302325583, 36.563865546218494], [0.8254069767441861, 36.56134453781513], [0.8198643410852715, 36.55714285714286], [0.817093023255814, 36.55434173669468], [0.8115503875968995, 36.54873949579832], [0.808779069767442, 36.54803921568628], [0.8004651162790699, 36.54789915966387], [0.7921511627906979, 36.54593837535014], [0.7879941860465118, 36.54033613445378], [0.7848764534883714, 36.53193277310925], [0.7838372093023258, 36.523529411764706], [0.7810658914728708, 36.51512605042017], [0.7755232558139535, 36.50952380952381], [0.7727519379844987, 36.50672268907563], [0.7672093023255815, 36.50252100840336], [0.7588953488372094, 36.50192076830732], [0.7505813953488374, 36.50252100840336], [0.7422674418604653, 36.50252100840336], [0.7339534883720931, 36.50112044817927], [0.7284108527131785, 36.498319327731096], [0.725639534883721, 36.497268907563026], [0.717325581395349, 36.492016806722695], [0.7090116279069769, 36.489915966386555], [0.7006976744186049, 36.48886554621849], [0.6923837209302326, 36.48781512605042], [0.6840697674418605, 36.48524743230626], [0.6757558139534885, 36.48345184227537], [0.6674418604651164, 36.48250123578843], [0.6591279069767444, 36.48235294117647], [0.6549709302325581, 36.48151260504202], [0.6508139534883721, 36.479984721161195], [0.6425000000000001, 36.474909963985596], [0.6397286821705446, 36.47310924369748], [0.634186046511628, 36.47091706247717], [0.625872093023256, 36.46876267748479], [0.6175581395348839, 36.46830732292917], [0.6092441860465116, 36.46750700280112], [0.6038995016611306, 36.464705882352945], [0.6009302325581396, 36.46270508203282], [0.5926162790697675, 36.458279782501236], [0.5870736434108501, 36.4563025210084], [0.5843023255813955, 36.45546218487395], [0.5759883720930234, 36.45324675324676], [0.5676744186046512, 36.45095492742552], [0.5593604651162791, 36.44862988673731], [0.5560348837209304, 36.44789915966387], [0.5560348837209304, 36.43949579831933], [0.5593604651162791, 36.43389355742297], [0.5676744186046512, 36.43202614379085], [0.568713662790697, 36.431092436974794], [0.5759883720930234, 36.42455648926237], [0.5778359173126604, 36.42268907563025], [0.5807392026578069, 36.41428571428572], [0.5759883720930234, 36.40588235294118], [0.5732170542635677, 36.39747899159664], [0.5724252491694382, 36.3890756302521], [0.5732170542635686, 36.38067226890757], [0.5676744186046512, 36.37394957983194], [0.5662887596899238, 36.372268907563026], [0.5593604651162791, 36.36626650660264], [0.5538178294573644, 36.36386554621849], [0.5510465116279071, 36.36293183940243], [0.542732558139535, 36.36281512605042], [0.5344186046511628, 36.360264105642266], [0.5261046511627907, 36.35906362545018], [0.5177906976744187, 36.356662665066025], [0.5094767441860466, 36.360504201680676], [0.5039341085271318, 36.36386554621849], [0.5011627906976746, 36.364915966386555], [0.49284883720930234, 36.36638655462185], [0.4845348837209303, 36.36760037348273], [0.47622093023255824, 36.37074102368221], [0.47414244186046656, 36.372268907563026], [0.4679069767441861, 36.37542016806723], [0.4603488372093016, 36.38067226890757], [0.459593023255814, 36.38143621084798], [0.45127906976744186, 36.38160597572362], [0.4429651162790698, 36.38067226890757], [0.43465116279069776, 36.378086619263094], [0.4263372093023256, 36.376003734827265], [0.41968604651162605, 36.372268907563026], [0.4192109634551486, 36.36386554621849], [0.4192109634551486, 36.35546218487395], [0.4221802325581396, 36.347058823529416], [0.41802325581395355, 36.338655462184875], [0.4097093023255814, 36.33025210084034], [0.40416666666666506, 36.3218487394958], [0.40139534883720934, 36.31680672268908], [0.3993168604651178, 36.313445378151265], [0.3968604651162794, 36.30504201680672], [0.3968604651162794, 36.29663865546219], [0.40047157622739077, 36.28823529411765], [0.40139534883720934, 36.286134453781514], [0.4063837209302325, 36.279831932773114], [0.40139534883720934, 36.273529411764706], [0.4000096899224819, 36.27142857142857], [0.3930813953488373, 36.26302521008404], [0.38476744186046513, 36.2546218487395], [0.3764534883720931, 36.24761904761905], [0.37506782945736566, 36.24621848739496], [0.36813953488372103, 36.240966386554625], [0.3619040697674419, 36.23781512605042], [0.35982558139534887, 36.233613445378154], [0.3515116279069768, 36.23221288515406], [0.34319767441860466, 36.23061224489796], [0.3348837209302326, 36.22941176470589], [0.32656976744186056, 36.22941176470589], [0.3182558139534884, 36.22941176470589], [0.30994186046511635, 36.22821128451381], [0.3016279069767442, 36.22605042016807], [0.29331395348837214, 36.221008403361346], [0.2850000000000001, 36.22240896358544], [0.2766860465116279, 36.22240896358544], [0.2725290697674419, 36.221008403361346], [0.2683720930232559, 36.21680672268908], [0.26670930232558326, 36.21260504201681], [0.2628294573643411, 36.20420168067227], [0.2600581395348837, 36.201400560224094], [0.25174418604651166, 36.19747899159664], [0.24343023255813961, 36.19747899159664], [0.23927325581395348, 36.195798319327736], [0.23511627906976745, 36.19411764705883], [0.23095930232558143, 36.195798319327736], [0.2268023255813954, 36.19859943977591], [0.21848837209302324, 36.2], [0.2101744186046512, 36.19939975990396], [0.20186046511627914, 36.2], [0.19354651162790698, 36.2], [0.18523255813953493, 36.19859943977591], [0.17691860465116288, 36.198199279711886], [0.16860465116279072, 36.195798319327736], [0.1630620155038734, 36.187394957983194], [0.16029069767441867, 36.181792717086836], [0.15925145348837283, 36.17899159663866], [0.1519767441860465, 36.17163865546219], [0.15093750000000078, 36.17058823529412], [0.14366279069767446, 36.16323529411765], [0.14247508305647943, 36.162184873949585], [0.1353488372093024, 36.158306399482875], [0.12703488372093025, 36.15535714285714], [0.12204651162790708, 36.15378151260504], [0.1187209302325582, 36.15289694825299], [0.11040697674418604, 36.15273109243698], [0.10708139534883715, 36.15378151260504], [0.10209302325581399, 36.15882352941177], [0.09876744186046521, 36.162184873949585], [0.09377906976744194, 36.17058823529412], [0.09655038759689755, 36.17899159663866], [0.10043023255814049, 36.187394957983194], [0.10209302325581399, 36.19075630252101], [0.10521075581395128, 36.195798319327736], [0.10803156146179599, 36.20420168067227], [0.10902131782945862, 36.21260504201681], [0.10874418604651354, 36.221008403361346], [0.10763565891473131, 36.22941176470589], [0.10874418604651354, 36.23781512605042], [0.11040697674418604, 36.23949579831933], [0.11705813953488559, 36.24621848739496], [0.1187209302325582, 36.24761904761905], [0.12703488372093025, 36.2546218487395], [0.1353488372093024, 36.2607333842628], [0.1378430232558125, 36.26302521008404], [0.14366279069767446, 36.26837280366692], [0.14735788113695153, 36.27142857142857], [0.1519767441860465, 36.276097105508875], [0.1567275747508335, 36.279831932773114], [0.16029069767441867, 36.28343337334934], [0.16860465116279072, 36.28543417366947], [0.1713759689922481, 36.28823529411765], [0.16860465116279072, 36.29103641456583], [0.165833333333336, 36.29663865546219], [0.16029069767441867, 36.30504201680672], [0.1519767441860465, 36.3078431372549], [0.14643410852713173, 36.30504201680672], [0.14366279069767446, 36.30224089635855], [0.1353488372093024, 36.297572362278245], [0.133963178294575, 36.29663865546219], [0.12703488372093025, 36.28963585434174], [0.1187209302325582, 36.29033613445378], [0.11040697674418604, 36.29423769507804], [0.10803156146179599, 36.29663865546219], [0.10209302325581399, 36.30264105642257], [0.10058139534883798, 36.30504201680672], [0.0958575581395334, 36.313445378151265], [0.09793604651162796, 36.3218487394958], [0.10209302325581399, 36.32605042016807], [0.10625000000000001, 36.33025210084034], [0.11040697674418604, 36.332352941176474], [0.1187209302325582, 36.33697478991597], [0.12703488372093025, 36.3374549819928], [0.1353488372093024, 36.336788048552755], [0.14366279069767446, 36.33287815126051], [0.1519767441860465, 36.332492997198884], [0.16029069767441867, 36.33505402160865], [0.16220930232557979, 36.338655462184875], [0.16709302325581482, 36.347058823529416], [0.16860465116279072, 36.35546218487395], [0.16860465116279072, 36.36386554621849], [0.16029069767441867, 36.36890756302521], [0.1519767441860465, 36.36764705882353], [0.145444352159467, 36.372268907563026], [0.14366279069767446, 36.37406962785114], [0.13662790697674304, 36.38067226890757], [0.1353488372093024, 36.381965093729804], [0.12703488372093025, 36.384873949579834], [0.1187209302325582, 36.384873949579834], [0.11040697674418604, 36.38067226890757], [0.10209302325581399, 36.38427370948379], [0.09377906976744194, 36.38347338935575], [0.08712790697674239, 36.38067226890757], [0.08546511627906977, 36.37947178871549], [0.07833887043189275, 36.372268907563026], [0.07715116279069772, 36.37016806722689], [0.07358803986711254, 36.36386554621849], [0.07216279069767445, 36.35546218487395], [0.06883720930232562, 36.35126050420168], [0.06468023255813954, 36.347058823529416], [0.060523255813953514, 36.344657863145265], [0.05220930232558141, 36.34285714285715], [0.04389534883720936, 36.34117647058824], [0.03558139534883725, 36.338655462184875], [0.027267441860465147, 36.33550420168068], [0.01895348837209304, 36.333053221288516], [0.010639534883720936, 36.331452581032416], [0.0023255813953488857, 36.33025210084034], [-0.00598837209302322, 36.32885154061625], [-0.014302325581395325, 36.3218487394958], [-0.02261627906976743, 36.31764705882353], [-0.03093023255813948, 36.313445378151265], [-0.03508720930232556, 36.30504201680672], [-0.03093023255813948, 36.29663865546219], [-0.03508720930232556, 36.28823529411765], [-0.03924418604651159, 36.28403361344538], [-0.04755813953488369, 36.279831932773114], [-0.0558720930232558, 36.279831932773114], [-0.0641860465116279, 36.27563025210085], [-0.06834302325581393, 36.27142857142857], [-0.07249999999999995, 36.27072829131653], [-0.08081395348837206, 36.26792717086835], [-0.08912790697674416, 36.26470588235294], [-0.09744186046511627, 36.2686274509804], [-0.10021317829457099, 36.27142857142857], [-0.10575581395348838, 36.27703081232494], [-0.11406976744186043, 36.27894736842106], [-0.12238372093023253, 36.27894736842106], [-0.13069767441860464, 36.27703081232493], [-0.13901162790697674, 36.27247899159664], [-0.14039728682170605, 36.27142857142857], [-0.1473255813953488, 36.26676003734828], [-0.1556395348837209, 36.26401384083045], [-0.16118217054263828, 36.26302521008404], [-0.163953488372093, 36.262184873949586], [-0.1722674418604651, 36.25982392957183], [-0.1805813953488372, 36.25683325961964], [-0.18577761627907197, 36.2546218487395], [-0.1888953488372093, 36.253295002211416], [-0.19720930232558137, 36.24967869500742], [-0.2044840116279077, 36.24621848739496], [-0.20552325581395348, 36.245751633986934], [-0.21383720930232555, 36.24021608643458], [-0.2179941860465116, 36.23781512605042], [-0.22215116279069766, 36.23557422969188], [-0.23046511627906974, 36.2301757066463], [-0.23185077519379713, 36.22941176470589], [-0.23877906976744184, 36.226410564225695], [-0.2445348837209288, 36.221008403361346], [-0.24709302325581395, 36.21842275371687], [-0.2538953488372101, 36.21260504201681], [-0.255406976744186, 36.2118411000764], [-0.26372093023255816, 36.20700280112045], [-0.2678779069767442, 36.20420168067227], [-0.2720348837209302, 36.20245098039216], [-0.2803488372093023, 36.19859943977591], [-0.2874750830564794, 36.195798319327736], [-0.2886627906976744, 36.195356037151704], [-0.29697674418604647, 36.19159663865547], [-0.3052906976744186, 36.187394957983194], [-0.3136046511627907, 36.18442906574395], [-0.3219186046511628, 36.18291316526611], [-0.3302325581395349, 36.181512605042016], [-0.3343895348837209, 36.17899159663866], [-0.33854651162790694, 36.17750865051904], [-0.34686046511627905, 36.17712418300654], [-0.35413517441860537, 36.17058823529412], [-0.35517441860465115, 36.17026502908856], [-0.36348837209302326, 36.16864899806077], [-0.37180232558139537, 36.17012138188609], [-0.3801162790697674, 36.17012138188609], [-0.3884302325581395, 36.17012138188609], [-0.3967441860465116, 36.169327731092444], [-0.40505813953488373, 36.168907563025215], [-0.4133720930232558, 36.16793454223795], [-0.4216860465116279, 36.16533613445378], [-0.43, 36.16374105197635]]}}, {"type": "Feature", "properties": {"temperature": 24.5, "units": "celsius"}, "geometry": {"type": "LineString", "coordinates": [[0.9833720930232559, 36.69798319327732], [0.9778294573643393, 36.7]]}}, {"type": "Feature", "properties": {"temperature": 24.5, "units": "celsius"}, "geometry": {"type": "LineString", "coordinates": [[0.2268023255813954, 36.279831932773114], [0.23095930232558143, 36.28823529411765], [0.23511627906976745, 36.29663865546219], [0.23511627906976745, 36.30504201680672], [0.2268023255813954, 36.30504201680672], [0.21848837209302324, 36.30224089635855], [0.2101744186046512, 36.30224089635855], [0.20186046511627914, 36.29663865546219], [0.19354651162790698, 36.29183673469388], [0.18523255813953493, 36.28879551820729], [0.18246124031007754, 36.28823529411765], [0.18523255813953493, 36.286134453781514], [0.19354651162790698, 36.28403361344538], [0.19978197674418613, 36.279831932773114], [0.20186046511627914, 36.27843137254902], [0.2101744186046512, 36.27563025210085], [0.21848837209302324, 36.27563025210085], [0.2268023255813954, 36.279831932773114]]}}, {"type": "Feature", "properties": {"temperature": 24.5, "units": "celsius"}, "geometry": {"type": "LineString", "coordinates": [[-0.30053986710963165, 35.893277310924375], [-0.3052906976744186, 35.90168067226891], [-0.29697674418604647, 35.90798319327731], [-0.29074127906976743, 35.90168067226891], [-0.2886627906976744, 35.900480192076834], [-0.2803488372093023, 35.89537815126051], [-0.2770232558139535, 35.893277310924375], [-0.2720348837209302, 35.89117647058824], [-0.2657994186046502, 35.884873949579834], [-0.26372093023255816, 35.88367346938776], [-0.255406976744186, 35.880872348939576], [-0.2488745847176065, 35.8764705882353], [-0.24709302325581395, 35.87466986794718], [-0.2400581395348826, 35.86806722689076], [-0.23877906976744184, 35.86386554621849], [-0.2346220930232558, 35.859663865546224], [-0.235453488372093, 35.85126050420168], [-0.23877906976744184, 35.847058823529416], [-0.24210465116279067, 35.84285714285715], [-0.24709302325581395, 35.840336134453786], [-0.255406976744186, 35.83445378151261]]}}, {"type": "Feature", "properties": {"temperature": 24.5, "units": "celsius"}, "geometry": {"type": "LineString", "coordinates": [[-0.15979651162790698, 35.81764705882353], [-0.15979651162790698, 35.82605042016807], [-0.1556395348837209, 35.82717086834734], [-0.1473255813953488, 35.826544735541276], [-0.13901162790697674, 35.82605042016807], [-0.13069767441860464, 35.81764705882353], [-0.12376937984495989, 35.809243697479]]}}, {"type": "Feature", "properties": {"temperature": 25.0, "units": "celsius"}, "geometry": {"type": "LineString", "coordinates": [[0.808779069767442, 36.7], [0.8004651162790699, 36.6936974789916], [0.7921511627906979, 36.692797118847544], [0.7879941860465118, 36.69159663865546], [0.7838372093023258, 36.68991596638656], [0.7755232558139535, 36.687394957983194], [0.7672093023255815, 36.68319327731093], [0.7588953488372094, 36.674789915966386], [0.7505813953488374, 36.66638655462185], [0.7422674418604653, 36.66358543417367], [0.7339534883720931, 36.66078431372549], [0.729796511627907, 36.65798319327731], [0.725639534883721, 36.656302521008406], [0.717325581395349, 36.65238095238095], [0.7090116279069769, 36.65126050420168], [0.7048546511627909, 36.649579831932776], [0.7006976744186049, 36.641176470588235], [0.7034689922480621, 36.6327731092437], [0.7006976744186049, 36.62436974789916], [0.6923837209302326, 36.615966386554625], [0.6840697674418605, 36.61176470588236], [0.678527131782946, 36.607563025210084], [0.6757558139534885, 36.59915966386555], [0.6674418604651164, 36.59495798319328], [0.6591279069767444, 36.59635854341737], [0.6508139534883721, 36.595798319327734], [0.6425000000000001, 36.59075630252101], [0.64012458471761, 36.582352941176474], [0.64012458471761, 36.57394957983193], [0.641312292358805, 36.5655462184874], [0.6369573643410855, 36.55714285714286], [0.634186046511628, 36.55434173669468], [0.6286434108527132, 36.54873949579832], [0.625872093023256, 36.54705882352942], [0.6175581395348839, 36.544537815126056], [0.6092441860465116, 36.543487394957985], [0.6009302325581396, 36.54153661464586], [0.5988517441860466, 36.54033613445378], [0.5926162790697675, 36.537535014005606], [0.5843023255813955, 36.53403361344538], [0.5807392026578104, 36.53193277310925], [0.5759883720930234, 36.529347123464774], [0.5676744186046512, 36.52633053221289], [0.5593604651162791, 36.52415188297542], [0.5510465116279071, 36.52510504201681], [0.542732558139535, 36.52600098863075], [0.5344186046511628, 36.52600098863075], [0.5261046511627907, 36.52563025210085], [0.5177906976744187, 36.52521008403362], [0.5094767441860466, 36.52417582417583], [0.5067054263565893, 36.523529411764706], [0.5011627906976746, 36.51512605042017], [0.5094767441860466, 36.50672268907563], [0.5136337209302326, 36.498319327731096], [0.5177906976744187, 36.492016806722695], [0.5261046511627907, 36.489915966386555], [0.5344186046511628, 36.489915966386555], [0.542732558139535, 36.48571428571429], [0.546889534883721, 36.48151260504202], [0.546889534883721, 36.47310924369748], [0.542732558139535, 36.469747899159664], [0.5344186046511628, 36.46890756302521], [0.5261046511627907, 36.46890756302521], [0.5177906976744187, 36.46750700280112], [0.5136337209302326, 36.464705882352945], [0.5094767441860466, 36.46386554621849], [0.5011627906976746, 36.46317799847212], [0.49284883720930234, 36.46302521008404], [0.48952325581395345, 36.464705882352945], [0.4845348837209303, 36.46785714285714], [0.47622093023255824, 36.46950780312125], [0.4679069767441861, 36.46950780312125], [0.459593023255814, 36.467106842737095], [0.458081395348838, 36.464705882352945], [0.45127906976744186, 36.45966386554622], [0.4479534883720924, 36.4563025210084], [0.4429651162790698, 36.452321981424156], [0.4388081395348838, 36.44789915966387], [0.43465116279069776, 36.444397759103644], [0.4298013565891479, 36.43949579831933], [0.4283167220376524, 36.431092436974794], [0.43405730897010025, 36.42268907563025], [0.43465116279069776, 36.42208883553422], [0.4423712624584723, 36.41428571428572], [0.4400552325581398, 36.40588235294118], [0.43465116279069776, 36.40042016806723], [0.4293604651162803, 36.39747899159664], [0.4263372093023256, 36.396186166774406], [0.41802325581395355, 36.39712885154062], [0.41683554817275853, 36.39747899159664], [0.4097093023255814, 36.4046818727491], [0.40852159468438637, 36.40588235294118], [0.40495847176079786, 36.41428571428572], [0.4097093023255814, 36.41908763505403], [0.41327242524917, 36.42268907563025], [0.41585439838220445, 36.431092436974794], [0.4097093023255814, 36.435174069627855], [0.40139534883720934, 36.437327188940095], [0.3930813953488373, 36.438375350140056], [0.38476744186046513, 36.438626485076796], [0.3764534883720931, 36.43834988540871], [0.3733357558139558, 36.43949579831933], [0.36813953488372103, 36.44299719887955], [0.3632897286821712, 36.44789915966387], [0.35982558139534887, 36.451400560224094], [0.3553488372093026, 36.4563025210084], [0.3515116279069768, 36.46190476190477], [0.3487403100775211, 36.464705882352945], [0.34319767441860466, 36.4703081232493], [0.3369622093023256, 36.47310924369748], [0.3348837209302326, 36.47731092436975], [0.3307267441860466, 36.48151260504202], [0.3348837209302326, 36.48571428571429], [0.33904069767441863, 36.489915966386555], [0.34319767441860466, 36.491596638655466], [0.3515116279069768, 36.49551820728292], [0.35566860465116285, 36.498319327731096], [0.35982558139534887, 36.50112044817927], [0.36813953488372103, 36.503921568627455], [0.3764534883720931, 36.503361344537815], [0.38476744186046513, 36.50672268907563], [0.3764534883720931, 36.510924369747904], [0.36813953488372103, 36.510924369747904], [0.35982558139534887, 36.512324929971996], [0.3515116279069768, 36.51302521008404], [0.34319767441860466, 36.51512605042017], [0.3348837209302326, 36.516806722689076], [0.32656976744186056, 36.518945760122236], [0.3182558139534884, 36.51932773109244], [0.30994186046511635, 36.51886087768441], [0.3016279069767442, 36.517226890756305], [0.29747093023255816, 36.51512605042017], [0.29331395348837214, 36.50952380952381], [0.29054263565891486, 36.50672268907563], [0.2850000000000001, 36.50112044817927], [0.2822286821705427, 36.498319327731096], [0.2766860465116279, 36.49271708683474], [0.2683720930232559, 36.489915966386555], [0.2600581395348837, 36.48151260504202], [0.25174418604651166, 36.47731092436975], [0.24343023255813961, 36.47591036414566], [0.24065891472868223, 36.47310924369748], [0.23511627906976745, 36.46750700280112], [0.23095930232558143, 36.464705882352945], [0.2268023255813954, 36.46190476190476], [0.21848837209302324, 36.46190476190476], [0.2101744186046512, 36.464705882352945], [0.20186046511627914, 36.47310924369748], [0.20186046511627914, 36.48151260504202], [0.19354651162790698, 36.483613445378154], [0.18523255813953493, 36.483613445378154], [0.18246124031007754, 36.48151260504202], [0.17691860465116288, 36.478151260504205], [0.16860465116279072, 36.477911164465795], [0.16029069767441867, 36.477911164465795], [0.1519767441860465, 36.47731092436975], [0.14366279069767446, 36.48151260504202], [0.1353488372093024, 36.489915966386555], [0.1353488372093024, 36.498319327731096], [0.13812015503875968, 36.50672268907563], [0.1353488372093024, 36.51512605042017], [0.12703488372093025, 36.51232492997199], [0.12149224806201547, 36.50672268907563], [0.1187209302325582, 36.503921568627455], [0.11040697674418604, 36.498319327731096], [0.10209302325581399, 36.49551820728291], [0.09377906976744194, 36.489915966386555], [0.08546511627906977, 36.483193277310924], [0.08380232558139727, 36.48151260504202], [0.07715116279069772, 36.47310924369748], [0.07216279069767445, 36.464705882352945], [0.06883720930232562, 36.459103641456586], [0.06606589147286823, 36.4563025210084], [0.060523255813953514, 36.450700280112045], [0.05220930232558141, 36.44789915966387], [0.04389534883720936, 36.44789915966387], [0.03558139534883725, 36.45294117647059], [0.027267441860465147, 36.45390156062425], [0.01895348837209304, 36.45536881419235], [0.014796511627907016, 36.4563025210084], [0.010639534883720936, 36.457352941176474], [0.0023255813953488857, 36.45882352941177], [-0.00598837209302322, 36.46050420168068], [-0.014302325581395325, 36.46165011459129], [-0.02261627906976743, 36.46317799847212], [-0.03093023255813948, 36.4640056022409], [-0.03508720930232556, 36.464705882352945], [-0.03924418604651159, 36.46526610644258], [-0.04755813953488369, 36.46628151260504], [-0.0558720930232558, 36.467331932773114], [-0.0641860465116279, 36.46806722689076], [-0.07249999999999995, 36.46915472071181], [-0.08081395348837206, 36.46915472071181], [-0.08912790697674416, 36.46915472071181], [-0.09744186046511627, 36.46590636254502], [-0.09981727574750632, 36.464705882352945], [-0.10575581395348838, 36.4563025210084], [-0.11406976744186043, 36.44789915966387], [-0.12238372093023253, 36.43949579831933], [-0.13069767441860464, 36.433493397358944], [-0.13901162790697674, 36.431092436974794], [-0.1473255813953488, 36.42803666921314], [-0.1556395348837209, 36.42352941176471], [-0.15667877906976674, 36.42268907563025], [-0.1594186046511632, 36.41428571428572], [-0.163953488372093, 36.40708283313325], [-0.16459302325581338, 36.40588235294118], [-0.16478488372092975, 36.39747899159664], [-0.1672790697674425, 36.3890756302521], [-0.1722674418604651, 36.38220015278839], [-0.17314259485924033, 36.38067226890757], [-0.1790697674418612, 36.372268907563026], [-0.1805813953488372, 36.37016806722689], [-0.18307558139534907, 36.36386554621849], [-0.1888953488372093, 36.35546218487395], [-0.19201308139534848, 36.347058823529416], [-0.19720930232558137, 36.34059469941823], [-0.19912790697674249, 36.338655462184875], [-0.20552325581395348, 36.331652661064425], [-0.2068023255813942, 36.33025210084034], [-0.21383720930232555, 36.32254901960785], [-0.21447674418604593, 36.3218487394958], [-0.22007267441860562, 36.313445378151265], [-0.22215116279069766, 36.311153552330026], [-0.2281976744186058, 36.30504201680672], [-0.23046511627906974, 36.30275019098549], [-0.2365116279069779, 36.29663865546219], [-0.23877906976744184, 36.29506302521009], [-0.24709302325581395, 36.29103641456583], [-0.2526356589147313, 36.28823529411765], [-0.255406976744186, 36.28683473389356], [-0.26372093023255816, 36.280595874713526], [-0.2649086378737532, 36.279831932773114], [-0.2720348837209302, 36.27524828113064], [-0.27723110465116496, 36.27142857142857], [-0.2803488372093023, 36.269852941176474], [-0.2886627906976744, 36.26512605042017], [-0.2910382059800669, 36.26302521008404], [-0.29697674418604647, 36.259205500381974], [-0.3052906976744186, 36.25529411764706], [-0.3065697674418593, 36.2546218487395], [-0.3136046511627907, 36.251066580478344], [-0.3219186046511628, 36.24676063973977], [-0.322793757649938, 36.24621848739496], [-0.3302325581395349, 36.24129237902058], [-0.3357751937984496, 36.23781512605042], [-0.33854651162790694, 36.23562294483011], [-0.34686046511627905, 36.23093964858671], [-0.34893895348837284, 36.22941176470589], [-0.35517441860465115, 36.22553329023918], [-0.3607170542635659, 36.221008403361346], [-0.36348837209302326, 36.218450858604314], [-0.37180232558139537, 36.21450257522364], [-0.37395779500430654, 36.21260504201681], [-0.3801162790697674, 36.20529777128243], [-0.3813039867109625, 36.20420168067227], [-0.3884302325581395, 36.19699879951981], [-0.3934186046511628, 36.195798319327736], [-0.3967441860465116, 36.194397759103644], [-0.40505813953488373, 36.18769507803122], [-0.40921511627906976, 36.187394957983194], [-0.4133720930232558, 36.186928104575166], [-0.4216860465116279, 36.18190045248869], [-0.42916860465116324, 36.17899159663866], [-0.43, 36.17870182555781]]}}, {"type": "Feature", "properties": {"temperature": 25.0, "units": "celsius"}, "geometry": {"type": "LineString", "coordinates": [[0.808779069767442, 36.66574014221074], [0.8004651162790699, 36.665919701213824], [0.7995413436692516, 36.66638655462185], [0.7921511627906979, 36.674789915966386], [0.8004651162790699, 36.68319327731093], [0.808779069767442, 36.6905462184874], [0.817093023255814, 36.690662931839405], [0.8254069767441861, 36.69159663865546], [0.8337209302325583, 36.7], [0.8383397932816532, 36.69159663865546], [0.8420348837209304, 36.68786181139122], [0.8503488372093024, 36.68319327731093], [0.8503488372093024, 36.674789915966386], [0.8420348837209304, 36.67226890756303], [0.8337209302325583, 36.66974789915967], [0.8254069767441861, 36.66867838044309], [0.817093023255814, 36.66867838044309], [0.810857558139535, 36.66638655462185], [0.808779069767442, 36.66574014221074]]}}, {"type": "Feature", "properties": {"temperature": 25.0, "units": "celsius"}, "geometry": {"type": "LineString", "coordinates": [[0.6425000000000001, 36.51344537815127], [0.634186046511628, 36.51512605042017], [0.6314147286821707, 36.523529411764706], [0.634186046511628, 36.52633053221289], [0.6397286821705426, 36.53193277310925], [0.6425000000000001, 36.53473389355742], [0.6508139534883721, 36.54033613445378], [0.6591279069767444, 36.54243697478992], [0.6674418604651164, 36.54873949579832], [0.6724302325581395, 36.55714285714286], [0.6736773255813955, 36.5655462184874], [0.6715988372093025, 36.57394957983193], [0.6757558139534885, 36.57815126050421], [0.6799127906976745, 36.582352941176474], [0.6840697674418605, 36.58515406162465], [0.6923837209302326, 36.582352941176474], [0.7006976744186049, 36.57995198079232], [0.7090116279069769, 36.577551020408166], [0.717325581395349, 36.57394957983193], [0.7223139534883722, 36.5655462184874], [0.717325581395349, 36.55714285714286], [0.7090116279069769, 36.54873949579832], [0.7006976744186049, 36.54173669467787], [0.6979263565891474, 36.54033613445378], [0.6923837209302326, 36.538235294117655], [0.6840697674418605, 36.536134453781514], [0.6778343023255815, 36.53193277310925], [0.6757558139534885, 36.53073229291717], [0.6674418604651164, 36.529831932773114], [0.6591279069767444, 36.523529411764706], [0.6508139534883721, 36.51932773109244], [0.6452713178294576, 36.51512605042017], [0.6425000000000001, 36.51344537815127]]}}, {"type": "Feature", "properties": {"temperature": 25.0, "units": "celsius"}, "geometry": {"type": "LineString", "coordinates": [[0.6175581395348839, 36.50252100840336], [0.6092441860465116, 36.50672268907563], [0.6134011627906979, 36.51512605042017], [0.6175581395348839, 36.516806722689076], [0.625872093023256, 36.51512605042017], [0.625872093023256, 36.50672268907563], [0.6175581395348839, 36.50252100840336]]}}, {"type": "Feature", "properties": {"temperature": 25.0, "units": "celsius"}, "geometry": {"type": "LineString", "coordinates": [[0.17691860465116288, 36.428466386554625], [0.16860465116279072, 36.425490196078435], [0.16029069767441867, 36.42619047619048], [0.1519767441860465, 36.42829131652662], [0.14574127906976747, 36.431092436974794], [0.14366279069767446, 36.43389355742297], [0.14033720930232557, 36.43949579831933], [0.14366279069767446, 36.44285714285714], [0.14722591362125953, 36.44789915966387], [0.1519767441860465, 36.451260504201684], [0.15696511627906878, 36.4563025210084], [0.16029069767441867, 36.459663865546226], [0.16860465116279072, 36.46302521008404], [0.17691860465116288, 36.464705882352945], [0.18523255813953493, 36.46750700280112], [0.19354651162790698, 36.46890756302521], [0.20186046511627914, 36.464705882352945], [0.20740310077519647, 36.4563025210084], [0.20186046511627914, 36.452100840336136], [0.19853488372092926, 36.44789915966387], [0.19354651162790698, 36.4436974789916], [0.18938953488372096, 36.43949579831933], [0.18523255813953493, 36.43529411764706], [0.18069767441860501, 36.431092436974794], [0.17691860465116288, 36.428466386554625]]}}, {"type": "Feature", "properties": {"temperature": 25.0, "units": "celsius"}, "geometry": {"type": "LineString", "coordinates": [[-0.11406976744186043, 36.308643457382956], [-0.12238372093023253, 36.313445378151265], [-0.13069767441860464, 36.3218487394958], [-0.12903488372093208, 36.33025210084034], [-0.12238372093023253, 36.338655462184875], [-0.11961240310077781, 36.347058823529416], [-0.1182267441860465, 36.35546218487395], [-0.11406976744186043, 36.36386554621849], [-0.10575581395348838, 36.372268907563026], [-0.09744186046511627, 36.38067226890757], [-0.08912790697674416, 36.3890756302521], [-0.08081395348837206, 36.393277310924375], [-0.07527131782945734, 36.39747899159664], [-0.07249999999999995, 36.399579831932776], [-0.0641860465116279, 36.40378151260504], [-0.06002906976744182, 36.40588235294118], [-0.0558720930232558, 36.40868347338936], [-0.05032945736434108, 36.41428571428572], [-0.04755813953488369, 36.417086834733894], [-0.03924418604651159, 36.4202881152461], [-0.03093023255813948, 36.420168067226896], [-0.02261627906976743, 36.4196333078686], [-0.014302325581395325, 36.41810542398778], [-0.00598837209302322, 36.41810542398778], [0.0023255813953488857, 36.41810542398778], [0.010639534883720936, 36.420168067226896], [0.01895348837209304, 36.42192513368985], [0.02172480620155043, 36.42268907563025], [0.027267441860465147, 36.42509003601441], [0.03558139534883725, 36.42941176470589], [0.03973837209302328, 36.431092436974794], [0.04389534883720936, 36.43949579831933], [0.05220930232558141, 36.43949579831933], [0.054980620155038795, 36.431092436974794], [0.054980620155038795, 36.42268907563025], [0.05775193798449879, 36.41428571428572], [0.05220930232558141, 36.40588235294118], [0.04389534883720936, 36.39747899159664], [0.03558139534883725, 36.3890756302521], [0.027267441860465147, 36.38534080298786], [0.01895348837209304, 36.38235294117647], [0.014796511627907016, 36.38067226890757], [0.010639534883720936, 36.37914438502674], [0.0023255813953488857, 36.37320261437909], [0.0006627906976763298, 36.372268907563026], [-0.00598837209302322, 36.37029164607019], [-0.014302325581395325, 36.36386554621849], [-0.02261627906976743, 36.35775401069519], [-0.02573401162790473, 36.35546218487395], [-0.03093023255813948, 36.35336134453782], [-0.03924418604651159, 36.35032679738563], [-0.04340116279069767, 36.347058823529416], [-0.04755813953488369, 36.342533936651584], [-0.05139534883720953, 36.338655462184875], [-0.0558720930232558, 36.33413057530705], [-0.06002906976744182, 36.33025210084034], [-0.0641860465116279, 36.327598407784166], [-0.07249999999999995, 36.3218487394958], [-0.08081395348837206, 36.31884753901561], [-0.08912790697674416, 36.31764705882353], [-0.09744186046511627, 36.3155462184874], [-0.10575581395348838, 36.313445378151265], [-0.11406976744186043, 36.308643457382956]]}}, {"type": "Feature", "properties": {"temperature": 25.0, "units": "celsius"}, "geometry": {"type": "LineString", "coordinates": [[0.4845348837209303, 36.39411764705883], [0.47622093023255824, 36.395187165775404], [0.4739534883720942, 36.39747899159664], [0.4744393687707656, 36.40588235294118], [0.47622093023255824, 36.40756302521009], [0.4845348837209303, 36.407749766573296], [0.4900775193798476, 36.40588235294118], [0.4900775193798476, 36.39747899159664], [0.4845348837209303, 36.39411764705883]]}}, {"type": "Feature", "properties": {"temperature": 25.0, "units": "celsius"}, "geometry": {"type": "LineString", "coordinates": [[-0.1473255813953488, 36.287394957983196], [-0.1556395348837209, 36.28823529411765], [-0.14836482558139463, 36.29663865546219], [-0.1473255813953488, 36.29747899159664], [-0.14593992248062143, 36.29663865546219], [-0.14640180878553027, 36.28823529411765], [-0.1473255813953488, 36.287394957983196]]}}, {"type": "Feature", "properties": {"temperature": 25.5, "units": "celsius"}, "geometry": {"type": "LineString", "coordinates": [[0.5759883720930234, 36.7], [0.5843023255813955, 36.7], [0.5926162790697675, 36.7]]}}, {"type": "Feature", "properties": {"temperature": 25.5, "units": "celsius"}, "geometry": {"type": "LineString", "coordinates": [[0.625872093023256, 36.7], [0.634186046511628, 36.7], [0.6425000000000001, 36.7], [0.6508139534883721, 36.69159663865546], [0.6466569767441861, 36.68319327731093], [0.6425000000000001, 36.68269896193772], [0.634186046511628, 36.68161764705883], [0.625872093023256, 36.67996121525533], [0.6175581395348839, 36.67572362278245], [0.6147868217054264, 36.674789915966386], [0.6092441860465116, 36.67385620915033], [0.6009302325581396, 36.67429560059318], [0.5967732558139536, 36.674789915966386], [0.5926162790697675, 36.675630252100845], [0.5843023255813955, 36.676657329598505], [0.5759883720930234, 36.676657329598505], [0.5676744186046512, 36.67631779984721], [0.5593604651162791, 36.674789915966386], [0.5510465116279071, 36.672498090145154], [0.542732558139535, 36.67135217723453], [0.5344186046511628, 36.66967482645232], [0.5261046511627907, 36.66867838044309], [0.5177906976744187, 36.66798719487795], [0.5094767441860466, 36.667226890756304], [0.5039341085271318, 36.66638655462185], [0.5011627906976746, 36.66594427244582], [0.49284883720930234, 36.665059708093764], [0.4845348837209303, 36.66358543417367], [0.47622093023255824, 36.662432031636186], [0.4679069767441861, 36.66078431372549], [0.459593023255814, 36.6593837535014], [0.45127906976744186, 36.65798319327731], [0.4429651162790698, 36.65798319327731], [0.43465116279069776, 36.65897182402373], [0.4263372093023256, 36.65897182402373], [0.41802325581395355, 36.658916900093374], [0.4097093023255814, 36.65798319327731], [0.40139534883720934, 36.654621848739495], [0.3930813953488373, 36.649579831932776], [0.38476744186046513, 36.64453781512605], [0.3806104651162791, 36.641176470588235], [0.3764534883720931, 36.63697478991597], [0.37368217054263836, 36.6327731092437], [0.37229651162790706, 36.62436974789916], [0.37229651162790706, 36.615966386554625], [0.36813953488372103, 36.607563025210084], [0.3619040697674419, 36.59915966386555], [0.35982558139534887, 36.597058823529416], [0.35359011627906983, 36.59075630252101], [0.3515116279069768, 36.589355742296924], [0.34319767441860466, 36.58515406162465], [0.3376550387596899, 36.582352941176474], [0.3348837209302326, 36.58067226890757], [0.32656976744186056, 36.57815126050421], [0.3182558139534884, 36.57394957983193], [0.30994186046511635, 36.569747899159665], [0.3016279069767442, 36.56890756302521], [0.29331395348837214, 36.5655462184874], [0.2850000000000001, 36.56134453781513], [0.2766860465116279, 36.55714285714286], [0.2683720930232559, 36.55434173669468], [0.2600581395348837, 36.55114045618247], [0.25174418604651166, 36.54873949579832], [0.24343023255813961, 36.54663865546219], [0.23511627906976745, 36.545588235294126], [0.2268023255813954, 36.5451380552221], [0.21848837209302324, 36.545588235294126], [0.2101744186046512, 36.545588235294126], [0.20186046511627914, 36.54663865546219], [0.19354651162790698, 36.54780578898227], [0.18523255813953493, 36.54873949579832], [0.17691860465116288, 36.54967320261438], [0.16860465116279072, 36.55126050420168], [0.16029069767441867, 36.55210084033614], [0.1519767441860465, 36.55255920550039], [0.14366279069767446, 36.55255920550039], [0.1353488372093024, 36.55294117647059], [0.12703488372093025, 36.55261797026503], [0.1187209302325582, 36.55197155785392], [0.11040697674418604, 36.550980392156866], [0.10209302325581399, 36.54933973589436], [0.09793604651162796, 36.54873949579832], [0.09377906976744194, 36.54809308338721], [0.08546511627906977, 36.54568372803667], [0.07715116279069772, 36.542857142857144], [0.07091569767441869, 36.54033613445378], [0.06883720930232562, 36.539402427637725], [0.060523255813953514, 36.53793517406963], [0.05220930232558141, 36.536734693877555], [0.04389534883720936, 36.536974789915966], [0.03558139534883725, 36.536134453781514], [0.027267441860465147, 36.53403361344538], [0.01895348837209304, 36.53403361344538], [0.014796511627907016, 36.53193277310925], [0.010639534883720936, 36.529131652661064], [0.0023255813953488857, 36.53025210084034], [-0.00598837209302322, 36.52913165266107], [-0.014302325581395325, 36.52773109243698], [-0.02261627906976743, 36.52689075630253], [-0.03093023255813948, 36.52563025210084], [-0.03924418604651159, 36.52446311858077], [-0.04340116279069767, 36.523529411764706], [-0.04755813953488369, 36.52142857142857], [-0.0558720930232558, 36.51932773109244], [-0.0641860465116279, 36.51848739495799], [-0.07249999999999995, 36.516806722689076], [-0.08081395348837206, 36.51512605042017], [-0.08912790697674416, 36.51512605042017], [-0.09744186046511627, 36.51272509003602], [-0.10575581395348838, 36.510924369747904], [-0.11406976744186043, 36.5077731092437], [-0.11684108527131781, 36.50672268907563], [-0.12238372093023253, 36.50432172869148], [-0.13069767441860464, 36.50042016806723], [-0.13485465116279066, 36.498319327731096], [-0.13901162790697674, 36.495918367346945], [-0.1473255813953488, 36.489915966386555], [-0.1556395348837209, 36.485114045618246], [-0.16062790697674417, 36.48151260504202], [-0.163953488372093, 36.47941176470589], [-0.1722674418604651, 36.47450980392157], [-0.17434593023255812, 36.47310924369748], [-0.1805813953488372, 36.46890756302521], [-0.18473837209302324, 36.464705882352945], [-0.1888953488372093, 36.46155462184875], [-0.19720930232558137, 36.4563025210084], [-0.20552325581395348, 36.44789915966387], [-0.21383720930232555, 36.44159663865547], [-0.2179941860465116, 36.43949579831933], [-0.22215116279069766, 36.437394957983194], [-0.23046511627906974, 36.431092436974794], [-0.23877906976744184, 36.42605042016807], [-0.24210465116279067, 36.42268907563025], [-0.2450145348837209, 36.41428571428572], [-0.2450145348837209, 36.40588235294118], [-0.2429360465116279, 36.39747899159664], [-0.24709302325581395, 36.3890756302521], [-0.255406976744186, 36.38067226890757], [-0.2609496124031008, 36.372268907563026], [-0.2609496124031008, 36.36386554621849], [-0.2581782945736434, 36.35546218487395], [-0.2616424418604651, 36.347058823529416], [-0.26372093023255816, 36.34495798319328], [-0.2699563953488372, 36.338655462184875], [-0.2720348837209302, 36.33697478991597], [-0.27868604651162976, 36.33025210084034], [-0.2803488372093023, 36.32815126050421], [-0.2845058139534884, 36.3218487394958], [-0.2886627906976744, 36.31680672268908], [-0.290741279069766, 36.313445378151265], [-0.2944825581395363, 36.30504201680672], [-0.29697674418604647, 36.300000000000004], [-0.29905523255813804, 36.29663865546219], [-0.30321220930232656, 36.28823529411765], [-0.3052906976744186, 36.28319327731093], [-0.30736918604651015, 36.279831932773114], [-0.3136046511627907, 36.273529411764706], [-0.31568313953488225, 36.27142857142857], [-0.3219186046511628, 36.265826330532214], [-0.3281540697674419, 36.26302521008404], [-0.3302325581395349, 36.262324929971996], [-0.33854651162790694, 36.25720749838397], [-0.34686046511627905, 36.25522208883554], [-0.34778423772609757, 36.2546218487395], [-0.35517441860465115, 36.25042016806723], [-0.36182558139534976, 36.24621848739496], [-0.36348837209302326, 36.24453781512605], [-0.3695348837209314, 36.23781512605042], [-0.37180232558139537, 36.23552330022919], [-0.3762364341085269, 36.22941176470589], [-0.3801162790697674, 36.22549019607843], [-0.3834418604651158, 36.221008403361346], [-0.3884302325581395, 36.215966386554626], [-0.3917558139534879, 36.21260504201681], [-0.3967441860465116, 36.208021390374334], [-0.4011199510403927, 36.20420168067227], [-0.40505813953488373, 36.20183823529412], [-0.4133720930232558, 36.19796692870697], [-0.42076227390180937, 36.195798319327736], [-0.4216860465116279, 36.19555116164113], [-0.43, 36.195448179271715]]}}, {"type": "Feature", "properties": {"temperature": 25.5, "units": "celsius"}, "geometry": {"type": "LineString", "coordinates": [[0.7200968992248065, 36.7], [0.717325581395349, 36.69915966386555], [0.7090116279069769, 36.69618029029794], [0.7020833333333323, 36.7]]}}, {"type": "Feature", "properties": {"temperature": 26.0, "units": "celsius"}, "geometry": {"type": "LineString", "coordinates": [[-0.43, 36.655182072829135], [-0.42667441860465116, 36.649579831932776], [-0.4216860465116279, 36.641176470588235], [-0.4216860465116279, 36.6327731092437], [-0.41891472868217056, 36.62436974789916], [-0.4133720930232558, 36.621008403361344], [-0.40713662790697674, 36.615966386554625], [-0.40505813953488373, 36.61512605042017], [-0.3967441860465116, 36.613674560733386], [-0.3884302325581395, 36.613674560733386], [-0.3801162790697674, 36.61512605042017], [-0.37873062015504005, 36.615966386554625], [-0.3745736434108501, 36.62436974789916], [-0.3745736434108501, 36.6327731092437], [-0.3751279069767442, 36.641176470588235], [-0.3801162790697674, 36.649579831932776], [-0.3884302325581395, 36.65798319327731], [-0.3967441860465116, 36.66638655462185], [-0.4017325581395349, 36.674789915966386], [-0.4033953488372112, 36.68319327731093], [-0.40505813953488373, 36.687394957983194], [-0.40921511627906976, 36.69159663865546], [-0.4133720930232558, 36.6936974789916], [-0.4216860465116279, 36.6936974789916], [-0.42584302325581397, 36.69159663865546], [-0.43, 36.68319327731093]]}}, {"type": "Feature", "properties": {"temperature": 26.0, "units": "celsius"}, "geometry": {"type": "LineString", "coordinates": [[0.053990863787374, 36.7], [0.05284883720930178, 36.69159663865546], [0.05284883720930178, 36.68319327731093], [0.05284883720930178, 36.674789915966386], [0.05447674418604537, 36.66638655462185], [0.0570591085271312, 36.65798319327731], [0.05933554817275849, 36.649579831932776], [0.060523255813953514, 36.64397759103642], [0.061042877906976434, 36.641176470588235], [0.06260174418604725, 36.6327731092437], [0.06364098837209081, 36.62436974789916], [0.06883720930232562, 36.617366946778716], [0.07022286821705298, 36.615966386554625], [0.07715116279069772, 36.608963585434175], [0.07819040697674345, 36.607563025210084], [0.08546511627906977, 36.59915966386555], [0.09170058139534892, 36.59075630252101], [0.09377906976744194, 36.582352941176474], [0.08546511627906977, 36.57394957983193], [0.07715116279069772, 36.57394957983193], [0.06883720930232562, 36.57899159663866], [0.060523255813953514, 36.582352941176474], [0.05220930232558141, 36.58795518207283], [0.04389534883720936, 36.588655462184875], [0.03558139534883725, 36.588655462184875], [0.027267441860465147, 36.58571428571429], [0.01895348837209304, 36.58328664799253], [0.010639534883720936, 36.582352941176474], [0.0023255813953488857, 36.58493859082095], [-0.00598837209302322, 36.5868778280543], [-0.014302325581395325, 36.58922841864019], [-0.01845930232558135, 36.59075630252101], [-0.02261627906976743, 36.59195678271309], [-0.03093023255813948, 36.59542483660131], [-0.03758139534883903, 36.59915966386555], [-0.03924418604651159, 36.60021008403361], [-0.04755813953488369, 36.607563025210084], [-0.0558720930232558, 36.61428571428572], [-0.057534883720928354, 36.615966386554625], [-0.0641860465116279, 36.61932773109244], [-0.07249999999999995, 36.6234360410831], [-0.07416279069767251, 36.62436974789916], [-0.08081395348837206, 36.62661064425771], [-0.08912790697674416, 36.629807217004455], [-0.09744186046511627, 36.63172268907564], [-0.10298449612403099, 36.6327731092437], [-0.10575581395348838, 36.63319327731093], [-0.11406976744186043, 36.63319327731093], [-0.11684108527131781, 36.6327731092437], [-0.12238372093023253, 36.63090569561158], [-0.13069767441860464, 36.62436974789916], [-0.13485465116279066, 36.615966386554625], [-0.13624031007752202, 36.607563025210084], [-0.13901162790697674, 36.59915966386555], [-0.13901162790697674, 36.59075630252101], [-0.13901162790697674, 36.582352941176474], [-0.13901162790697674, 36.57394957983193], [-0.14178294573643413, 36.5655462184874], [-0.1473255813953488, 36.55714285714286], [-0.1556395348837209, 36.54873949579832], [-0.163953488372093, 36.54033613445378], [-0.1722674418604651, 36.54033613445378], [-0.1805813953488372, 36.53193277310925], [-0.1888953488372093, 36.53193277310925], [-0.19720930232558137, 36.523529411764706], [-0.20552325581395348, 36.51792717086835], [-0.21383720930232555, 36.51512605042017], [-0.22215116279069766, 36.510924369747904], [-0.23046511627906974, 36.50952380952381], [-0.2346220930232558, 36.50672268907563], [-0.23877906976744184, 36.5046218487395], [-0.24709302325581395, 36.50042016806723], [-0.2484786821705413, 36.498319327731096], [-0.2537441860465135, 36.489915966386555], [-0.255406976744186, 36.48781512605042], [-0.2595639534883721, 36.48151260504202], [-0.26372093023255816, 36.476470588235294], [-0.26704651162790694, 36.47310924369748], [-0.2720348837209302, 36.46680672268908], [-0.273074127906976, 36.464705882352945], [-0.27916112956810724, 36.4563025210084], [-0.2803488372093023, 36.45490196078432], [-0.2862873754152843, 36.44789915966387], [-0.2886627906976744, 36.445098039215694], [-0.29420542635659175, 36.43949579831933], [-0.29697674418604647, 36.43529411764706], [-0.29935215946843663, 36.431092436974794], [-0.3021729651162813, 36.42268907563025], [-0.3052906976744186, 36.41638655462185], [-0.30647840531561366, 36.41428571428572], [-0.3125654069767449, 36.40588235294118], [-0.3136046511627907, 36.40420168067227], [-0.32025581395349023, 36.39747899159664], [-0.3219186046511628, 36.39579831932774], [-0.3302325581395349, 36.3890756302521], [-0.33854651162790694, 36.386274509803926], [-0.34686046511627905, 36.38347338935574], [-0.34963178294573644, 36.38067226890757], [-0.35101744186046513, 36.372268907563026], [-0.35101744186046513, 36.36386554621849], [-0.35309593023255814, 36.35546218487395], [-0.35517441860465115, 36.347058823529416], [-0.3587375415282363, 36.338655462184875], [-0.3621027131782959, 36.33025210084034], [-0.36348837209302326, 36.32885154061625], [-0.37041666666666795, 36.3218487394958], [-0.37180232558139537, 36.320168067226895], [-0.3765531561461823, 36.313445378151265], [-0.3801162790697674, 36.30984393757504], [-0.3848671096345544, 36.30504201680672], [-0.3884302325581395, 36.3014405762305], [-0.39508139534883907, 36.29663865546219], [-0.3967441860465116, 36.295704948646126], [-0.40505813953488373, 36.29138655462185], [-0.41004651162790695, 36.28823529411765], [-0.4133720930232558, 36.279831932773114], [-0.4157475083056459, 36.27142857142857], [-0.4157475083056459, 36.26302521008404], [-0.4152196382428929, 36.2546218487395], [-0.4133720930232558, 36.24621848739496], [-0.4147577519379832, 36.23781512605042], [-0.4147577519379832, 36.22941176470589], [-0.41693521594684096, 36.221008403361346], [-0.4216860465116279, 36.21620648259304], [-0.42524916943521307, 36.21260504201681], [-0.43, 36.21083591331269]]}}, {"type": "Feature", "properties": {"temperature": 26.0, "units": "celsius"}, "geometry": {"type": "LineString", "coordinates": [[0.3764534883720931, 36.7], [0.38476744186046513, 36.69159663865546], [0.38476744186046513, 36.68319327731093], [0.3764534883720931, 36.681092436974794], [0.36813953488372103, 36.677190876350544], [0.3653682170542662, 36.674789915966386], [0.35982558139534887, 36.672922502334266], [0.3515116279069768, 36.67058823529412], [0.3445833333333321, 36.66638655462185], [0.34319767441860466, 36.66568627450981], [0.3348837209302326, 36.66428571428572], [0.32656976744186056, 36.66152145068554], [0.3182558139534884, 36.65847750865052], [0.31721656976744256, 36.65798319327731], [0.30994186046511635, 36.65488721804512], [0.3016279069767442, 36.650906678460856], [0.30006904069767554, 36.649579831932776], [0.29331395348837214, 36.64537815126051], [0.2850000000000001, 36.64343891402715], [0.2815766073871416, 36.641176470588235], [0.2766860465116279, 36.63794440853265], [0.2683720930232559, 36.63579831932773], [0.2615697674418597, 36.6327731092437], [0.2600581395348837, 36.63217286914766], [0.25174418604651166, 36.631324253839466], [0.24343023255813961, 36.63037214885955], [0.23511627906976745, 36.629271708683476], [0.2268023255813954, 36.6264705882353], [0.21987403100775077, 36.62436974789916], [0.21848837209302324, 36.623987776928956], [0.2101744186046512, 36.62245989304813], [0.20186046511627914, 36.62196878751501], [0.19354651162790698, 36.62436974789916], [0.18523255813953493, 36.62535837864558], [0.17691860465116288, 36.626704014939314], [0.16860465116279072, 36.62903828197946], [0.16029069767441867, 36.63230625583567], [0.15945930232558198, 36.6327731092437], [0.1519767441860465, 36.63817527010804], [0.1485125968992242, 36.641176470588235], [0.14366279069767446, 36.645701357466066], [0.13950581395348843, 36.649579831932776], [0.1353488372093024, 36.65378151260504], [0.13119186046511627, 36.65798319327731], [0.12703488372093025, 36.663585434173676], [0.12454069767442005, 36.66638655462185], [0.12325581395348811, 36.674789915966386], [0.12426356589147464, 36.68319327731093], [0.12495639534883868, 36.69159663865546], [0.12495639534883868, 36.7]]}}, {"type": "Feature", "properties": {"temperature": 26.0, "units": "celsius"}, "geometry": {"type": "LineString", "coordinates": [[-0.43, 36.34495798319328], [-0.4216860465116279, 36.34537815126051], [-0.41752906976744186, 36.347058823529416], [-0.4133720930232558, 36.34810924369748], [-0.40505813953488373, 36.35126050420168], [-0.40006976744186046, 36.35546218487395], [-0.3967441860465116, 36.358823529411765], [-0.39050872093023253, 36.36386554621849], [-0.3884302325581395, 36.36806722689076], [-0.3863517441860465, 36.372268907563026], [-0.3863517441860465, 36.38067226890757], [-0.386767441860467, 36.3890756302521], [-0.3884302325581395, 36.391176470588235], [-0.3925872093023256, 36.39747899159664], [-0.3967441860465116, 36.40378151260504], [-0.3984069767441841, 36.40588235294118], [-0.3967441860465116, 36.41008403361345], [-0.3946656976744186, 36.41428571428572], [-0.3946656976744186, 36.42268907563025], [-0.3967441860465116, 36.431092436974794], [-0.3967441860465116, 36.43949579831933], [-0.40505813953488373, 36.4436974789916], [-0.4133720930232558, 36.445098039215694], [-0.4216860465116279, 36.445798319327736], [-0.43, 36.444537815126054]]}}, {"type": "Feature", "properties": {"temperature": 26.5, "units": "celsius"}, "geometry": {"type": "LineString", "coordinates": [[-0.24709302325581395, 36.588655462184875], [-0.255406976744186, 36.59075630252101], [-0.2595639534883721, 36.59915966386555], [-0.2595639534883721, 36.607563025210084], [-0.26372093023255816, 36.61176470588236], [-0.2664922480620155, 36.615966386554625], [-0.2720348837209302, 36.62436974789916], [-0.2720348837209302, 36.6327731092437], [-0.2720348837209302, 36.641176470588235], [-0.2720348837209302, 36.649579831932776], [-0.2803488372093023, 36.649579831932776], [-0.2886627906976744, 36.649579831932776], [-0.29697674418604647, 36.65798319327731], [-0.29697674418604647, 36.66638655462185], [-0.2886627906976744, 36.674789915966386], [-0.2803488372093023, 36.66918767507003], [-0.2720348837209302, 36.66918767507003], [-0.26372093023255816, 36.66918767507003], [-0.255406976744186, 36.67058823529412], [-0.24709302325581395, 36.67058823529412], [-0.23877906976744184, 36.67118847539016], [-0.23046511627906974, 36.67118847539016], [-0.22215116279069766, 36.67310924369748], [-0.21383720930232555, 36.67198879551821], [-0.20552325581395348, 36.66918767507003], [-0.19720930232558137, 36.668487394957985], [-0.1888953488372093, 36.66974789915967], [-0.1805813953488372, 36.67058823529412], [-0.17559302325581394, 36.674789915966386], [-0.1722674418604651, 36.67689075630252], [-0.163953488372093, 36.68151260504202], [-0.15979651162790698, 36.68319327731093], [-0.1556395348837209, 36.68459383753502], [-0.1473255813953488, 36.68655462184874], [-0.13901162790697674, 36.687394957983194], [-0.13069767441860464, 36.69159663865546], [-0.12238372093023253, 36.69299719887955], [-0.1182267441860465, 36.69159663865546], [-0.11406976744186043, 36.687394957983194], [-0.10575581395348838, 36.68319327731093], [-0.09744186046511627, 36.674789915966386], [-0.08912790697674416, 36.66638655462185], [-0.08912790697674416, 36.674789915966386], [-0.08081395348837206, 36.68319327731093], [-0.07249999999999995, 36.68459383753502], [-0.0641860465116279, 36.684393757503], [-0.0558720930232558, 36.68319327731093], [-0.04755813953488369, 36.67899159663866], [-0.03924418604651159, 36.674789915966386], [-0.03093023255813948, 36.67058823529412], [-0.026773255813953456, 36.66638655462185], [-0.02261627906976743, 36.662184873949585], [-0.01845930232558135, 36.65798319327731], [-0.014302325581395325, 36.65588235294118], [-0.00598837209302322, 36.649579831932776], [0.0023255813953488857, 36.641176470588235], [0.003988372093021442, 36.6327731092437], [0.0023255813953488857, 36.6310924369748], [-0.004325581395350664, 36.62436974789916], [-0.00598837209302322, 36.622969187675075], [-0.014302325581395325, 36.62196878751501], [-0.01845930232558135, 36.62436974789916], [-0.02261627906976743, 36.627731092436974], [-0.03093023255813948, 36.6327731092437], [-0.03924418604651159, 36.63997599039616], [-0.0413226744186046, 36.641176470588235], [-0.04755813953488369, 36.64747899159664], [-0.0558720930232558, 36.649579831932776], [-0.0641860465116279, 36.654381752701084], [-0.07249999999999995, 36.65693277310925], [-0.08081395348837206, 36.657049486461254], [-0.08912790697674416, 36.65798319327731], [-0.08912790697674416, 36.66638655462185], [-0.09744186046511627, 36.65798319327731], [-0.10575581395348838, 36.65714285714286], [-0.11406976744186043, 36.65714285714286], [-0.12238372093023253, 36.65645530939649], [-0.13069767441860464, 36.655882352941184], [-0.13901162790697674, 36.65378151260504], [-0.1473255813953488, 36.649579831932776], [-0.1556395348837209, 36.64453781512605], [-0.163953488372093, 36.641176470588235], [-0.1722674418604651, 36.63907563025211], [-0.1805813953488372, 36.63697478991597], [-0.18473837209302324, 36.6327731092437], [-0.1888953488372093, 36.62717086834734], [-0.1909738372093023, 36.62436974789916], [-0.19720930232558137, 36.61806722689076], [-0.1992877906976744, 36.615966386554625], [-0.20552325581395348, 36.609663865546224], [-0.20829457364341084, 36.607563025210084], [-0.21383720930232555, 36.60516206482593], [-0.22215116279069766, 36.60126050420168], [-0.2263081395348837, 36.59915966386555], [-0.23046511627906974, 36.59635854341737], [-0.23877906976744184, 36.59075630252101], [-0.24709302325581395, 36.588655462184875]]}}]}